{"type": "FeatureCollection", "features": [{"type": "Feature", "geometry": {"type": "Point", "coordinates": [12.6175745, 48.248245]}, "properties": {"name": "Innspitz", "kind": "viewpoint", "ele": ""}}, {"type": "Feature", "geometry": {"type": "Point", "coordinates": [12.6679412, 48.1251373]}, "properties": {"name": "Alpenblick", "kind": "viewpoint", "ele": ""}}, {"type": "Feature", "geometry": {"type": "Point", "coordinates": [12.41667, 48.197826]}, "properties": {"name": "Inntal", "kind": "viewpoint", "ele": ""}}, {"type": "Feature", "geometry": {"type": "Point", "coordinates": [12.5780279, 48.2910998]}, "properties": {"name": "Hampersberg", "kind": "peak", "ele": "471"}}, {"type": "Feature", "geometry": {"type": "Point", "coordinates": [12.4049385, 48.2126337]}, "properties": {"name": "", "kind": "viewpoint", "ele": ""}}, {"type": "Feature", "geometry": {"type": "Point", "coordinates": [12.428069, 48.1808598]}, "properties": {"name": "", "kind": "viewpoint", "ele": ""}}, {"type": "Feature", "geometry": {"type": "Point", "coordinates": [12.6731634, 48.2403828]}, "properties": {"name": "", "kind": "viewpoint", "ele": ""}}, {"type": "Feature", "geometry": {"type": "Point", "coordinates": [12.4991466, 48.3495252]}, "properties": {"name": "", "kind": "viewpoint", "ele": ""}}, {"type": "Feature", "geometry": {"type": "Point", "coordinates": [12.346868, 48.2185788]}, "properties": {"name": "Tannberg", "kind": "peak", "ele": "550"}}, {"type": "Feature", "geometry": {"type": "Point", "coordinates": [12.3962785, 48.2082834]}, "properties": {"name": "", "kind": "viewpoint", "ele": ""}}, {"type": "Feature", "geometry": {"type": "Point", "coordinates": [12.6620623, 48.2693386]}, "properties": {"name": "", "kind": "viewpoint", "ele": ""}}, {"type": "Feature", "geometry": {"type": "Point", "coordinates": [12.6475504, 48.2852831]}, "properties": {"name": "Alpenblick", "kind": "viewpoint", "ele": ""}}, {"type": "Feature", "geometry": {"type": "Point", "coordinates": [12.5291638, 48.2336358]}, "properties": {"name": "Sauloch", "kind": "viewpoint", "ele": ""}}, {"type": "Feature", "geometry": {"type": "Point", "coordinates": [12.599324, 48.1200846]}, "properties": {"name": "Kobler H\u00c3\u00b6he", "kind": "viewpoint", "ele": ""}}, {"type": "Feature", "geometry": {"type": "Point", "coordinates": [12.4786768, 48.2816307]}, "properties": {"name": "", "kind": "viewpoint", "ele": ""}}, {"type": "Feature", "geometry": {"type": "Point", "coordinates": [12.4927419, 48.2893804]}, "properties": {"name": "Alpenblick", "kind": "viewpoint", "ele": ""}}, {"type": "Feature", "geometry": {"type": "Point", "coordinates": [12.4192138, 48.309139]}, "properties": {"name": "", "kind": "viewpoint", "ele": ""}}, {"type": "Feature", "geometry": {"type": "Point", "coordinates": [12.4008949, 48.3028803]}, "properties": {"name": "", "kind": "viewpoint", "ele": ""}}, {"type": "Feature", "geometry": {"type": "Point", "coordinates": [12.4717049, 48.281071]}, "properties": {"name": "", "kind": "viewpoint", "ele": ""}}, {"type": "Feature", "geometry": {"type": "Point", "coordinates": [12.4738705, 48.2834868]}, "properties": {"name": "", "kind": "viewpoint", "ele": ""}}, {"type": "Feature", "geometry": {"type": "Point", "coordinates": [12.4904896, 48.2149167]}, "properties": {"name": "", "kind": "viewpoint", "ele": ""}}, {"type": "Feature", "geometry": {"type": "Point", "coordinates": [12.3335736, 48.1559545]}, "properties": {"name": "", "kind": "viewpoint", "ele": ""}}, {"type": "Feature", "geometry": {"type": "Point", "coordinates": [12.3906872, 48.1652457]}, "properties": {"name": "Inntal Aussicht", "kind": "viewpoint", "ele": ""}}, {"type": "Feature", "geometry": {"type": "Point", "coordinates": [12.3525389, 48.157715]}, "properties": {"name": "", "kind": "viewpoint", "ele": ""}}, {"type": "Feature", "geometry": {"type": "Point", "coordinates": [12.4911115, 48.2120486]}, "properties": {"name": "Heistinger Hang", "kind": "viewpoint", "ele": ""}}, {"type": "Feature", "geometry": {"type": "Point", "coordinates": [12.3772391, 48.3556676]}, "properties": {"name": "Alpenpanorama", "kind": "viewpoint", "ele": ""}}, {"type": "Feature", "geometry": {"type": "Point", "coordinates": [12.3291586, 48.1838707]}, "properties": {"name": "", "kind": "viewpoint", "ele": ""}}, {"type": "Feature", "geometry": {"type": "Point", "coordinates": [12.3217583, 48.1711343]}, "properties": {"name": "", "kind": "viewpoint", "ele": ""}}, {"type": "Feature", "geometry": {"type": "Point", "coordinates": [12.6933852, 48.3114753]}, "properties": {"name": "", "kind": "viewpoint", "ele": ""}}, {"type": "Feature", "geometry": {"type": "Point", "coordinates": [12.7246607, 48.2756933]}, "properties": {"name": "", "kind": "viewpoint", "ele": ""}}, {"type": "Feature", "geometry": {"type": "Point", "coordinates": [12.608932, 48.2807475]}, "properties": {"name": "", "kind": "viewpoint", "ele": ""}}, {"type": "Feature", "geometry": {"type": "Point", "coordinates": [12.6425978, 48.2821277]}, "properties": {"name": "", "kind": "viewpoint", "ele": ""}}, {"type": "Feature", "geometry": {"type": "Point", "coordinates": [12.3711161, 48.2231883]}, "properties": {"name": "", "kind": "viewpoint", "ele": "530"}}, {"type": "Feature", "geometry": {"type": "Point", "coordinates": [12.5681569, 48.2434379]}, "properties": {"name": "", "kind": "viewpoint", "ele": ""}}]}