{"type": "FeatureCollection", "features": [{"type": "Feature", "geometry": {"type": "Point", "coordinates": [12.517083056492412, 48.19930544444444]}, "properties": {"rank": 1, "elevation_m": 455.7, "combined_score": 0.8149, "terrain_score": 0.8149, "mean_visible_km": 9.86, "max_visible_km": 15.0, "coverage_fraction": 0.822, "horizon_km": [13.2, 14.8, 11.5, 11.4, 13.4, 12.8, 12.4, 14.8, 14.6, 14.0, 10.6, 10.8, 11.1, 11.0, 10.9, 10.9, 14.8, 14.7, 12.1, 13.7, 15.0, 13.4, 13.9, 14.4, 15.0, 14.0, 14.4, 14.3, 15.0, 14.8, 14.7, 5.6, 3.1, 1.3, 2.8, 3.6, 3.8, 3.7, 3.7, 5.3, 4.2, 7.6, 5.3, 4.6, 4.7, 4.1, 4.1, 9.5, 4.5, 4.6, 9.7, 4.0, 7.4, 4.0, 11.9, 11.2, 11.2, 13.9, 14.6, 13.6, 13.2, 12.9, 13.0, 12.9, 11.9, 11.8, 11.5, 11.1, 11.1, 10.9, 11.2, 10.6, 10.8, 10.7, 10.3, 10.7, 10.3, 14.0, 14.5, 11.6, 9.6, 9.5, 10.8, 10.2, 10.3, 13.0, 12.9, 5.2, 5.5, 5.2, 5.3, 5.1, 5.6, 6.4, 6.1, 4.7, 5.8, 5.3, 5.3, 5.4, 5.4, 5.9, 6.1, 13.8, 11.7, 9.7, 10.5, 9.2, 6.1, 6.3, 14.8, 9.7, 10.1, 9.2, 15.0, 10.7, 10.4, 9.8, 9.6, 11.2, 9.9, 9.5, 9.6, 9.6, 10.2, 5.2, 2.8, 3.4, 3.2, 3.2, 14.6, 14.3, 13.8, 13.4, 15.0, 14.1, 12.8, 14.1, 14.5, 13.9, 12.4, 11.8, 11.0, 14.2, 14.7, 0.1, 0.1, 0.1, 0.1, 0.1, 0.1, 0.1, 0.1, 0.1, 0.1, 0.1, 14.0, 12.0, 12.1, 12.0, 13.5, 14.2, 14.4, 14.3, 12.2, 14.3, 14.2, 14.0, 13.1, 14.0, 13.6, 13.7, 13.4, 13.0, 13.9, 15.0, 13.4, 14.5, 13.4, 13.3], "azimuths_deg": [0.0, 2.0, 4.0, 6.0, 8.0, 10.0, 12.0, 14.0, 16.0, 18.0, 20.0, 22.0, 24.0, 26.0, 28.0, 30.0, 32.0, 34.0, 36.0, 38.0, 40.0, 42.0, 44.0, 46.0, 48.0, 50.0, 52.0, 54.0, 56.0, 58.0, 60.0, 62.0, 64.0, 66.0, 68.0, 70.0, 72.0, 74.0, 76.0, 78.0, 80.0, 82.0, 84.0, 86.0, 88.0, 90.0, 92.0, 94.0, 96.0, 98.0, 100.0, 102.0, 104.0, 106.0, 108.0, 110.0, 112.0, 114.0, 116.0, 118.0, 120.0, 122.0, 124.0, 126.0, 128.0, 130.0, 132.0, 134.0, 136.0, 138.0, 140.0, 142.0, 144.0, 146.0, 148.0, 150.0, 152.0, 154.0, 156.0, 158.0, 160.0, 162.0, 164.0, 166.0, 168.0, 170.0, 172.0, 174.0, 176.0, 178.0, 180.0, 182.0, 184.0, 186.0, 188.0, 190.0, 192.0, 194.0, 196.0, 198.0, 200.0, 202.0, 204.0, 206.0, 208.0, 210.0, 212.0, 214.0, 216.0, 218.0, 220.0, 222.0, 224.0, 226.0, 228.0, 230.0, 232.0, 234.0, 236.0, 238.0, 240.0, 242.0, 244.0, 246.0, 248.0, 250.0, 252.0, 254.0, 256.0, 258.0, 260.0, 262.0, 264.0, 266.0, 268.0, 270.0, 272.0, 274.0, 276.0, 278.0, 280.0, 282.0, 284.0, 286.0, 288.0, 290.0, 292.0, 294.0, 296.0, 298.0, 300.0, 302.0, 304.0, 306.0, 308.0, 310.0, 312.0, 314.0, 316.0, 318.0, 320.0, 322.0, 324.0, 326.0, 328.0, 330.0, 332.0, 334.0, 336.0, 338.0, 340.0, 342.0, 344.0, 346.0, 348.0, 350.0, 352.0, 354.0, 356.0, 358.0]}}, {"type": "Feature", "geometry": {"type": "Point", "coordinates": [12.375416408937605, 48.22291655555556]}, "properties": {"rank": 2, "elevation_m": 499.0, "combined_score": 0.8073, "terrain_score": 0.8073, "mean_visible_km": 6.24, "max_visible_km": 15.0, "coverage_fraction": 0.456, "horizon_km": [0.1, 0.1, 0.1, 0.1, 0.1, 0.1, 0.1, 0.1, 0.1, 0.1, 0.1, 0.1, 0.1, 0.1, 0.1, 0.1, 0.1, 0.1, 0.1, 0.1, 13.6, 14.4, 13.9, 14.2, 11.8, 11.8, 12.3, 12.0, 15.0, 15.0, 14.5, 14.9, 14.6, 14.6, 14.7, 14.7, 14.3, 14.4, 14.3, 14.9, 14.6, 13.7, 15.0, 14.3, 15.0, 15.0, 14.9, 14.9, 14.3, 14.9, 15.0, 14.9, 14.9, 14.8, 14.7, 15.0, 14.6, 8.1, 14.9, 14.4, 14.8, 15.0, 14.8, 13.9, 13.8, 13.3, 13.1, 11.5, 11.5, 9.9, 9.7, 8.9, 13.3, 13.4, 14.2, 8.4, 8.6, 10.0, 10.1, 10.5, 10.5, 8.7, 11.0, 9.2, 11.1, 11.3, 11.6, 12.0, 12.1, 14.1, 15.0, 14.8, 13.1, 14.8, 15.0, 14.1, 14.0, 14.8, 15.0, 13.1, 13.7, 13.7, 1.1, 1.1, 1.1, 1.1, 1.2, 1.2, 1.3, 1.2, 1.3, 1.3, 1.3, 1.4, 1.5, 1.5, 1.5, 1.3, 1.6, 1.6, 1.5, 0.5, 0.5, 0.5, 0.5, 0.1, 0.1, 0.1, 0.1, 0.1, 0.1, 0.1, 0.1, 0.1, 0.1, 0.1, 0.1, 0.1, 0.1, 0.1, 0.1, 0.1, 0.1, 0.1, 0.1, 0.1, 0.1, 0.1, 0.1, 0.1, 0.1, 0.1, 0.1, 0.1, 0.1, 0.1, 0.1, 0.1, 0.1, 0.1, 0.1, 0.1, 0.1, 0.1, 0.1, 0.1, 0.1, 0.1, 0.1, 0.1, 0.1, 0.1, 0.1, 0.1, 0.1, 0.1, 0.1, 0.1, 0.1, 0.1], "azimuths_deg": [0.0, 2.0, 4.0, 6.0, 8.0, 10.0, 12.0, 14.0, 16.0, 18.0, 20.0, 22.0, 24.0, 26.0, 28.0, 30.0, 32.0, 34.0, 36.0, 38.0, 40.0, 42.0, 44.0, 46.0, 48.0, 50.0, 52.0, 54.0, 56.0, 58.0, 60.0, 62.0, 64.0, 66.0, 68.0, 70.0, 72.0, 74.0, 76.0, 78.0, 80.0, 82.0, 84.0, 86.0, 88.0, 90.0, 92.0, 94.0, 96.0, 98.0, 100.0, 102.0, 104.0, 106.0, 108.0, 110.0, 112.0, 114.0, 116.0, 118.0, 120.0, 122.0, 124.0, 126.0, 128.0, 130.0, 132.0, 134.0, 136.0, 138.0, 140.0, 142.0, 144.0, 146.0, 148.0, 150.0, 152.0, 154.0, 156.0, 158.0, 160.0, 162.0, 164.0, 166.0, 168.0, 170.0, 172.0, 174.0, 176.0, 178.0, 180.0, 182.0, 184.0, 186.0, 188.0, 190.0, 192.0, 194.0, 196.0, 198.0, 200.0, 202.0, 204.0, 206.0, 208.0, 210.0, 212.0, 214.0, 216.0, 218.0, 220.0, 222.0, 224.0, 226.0, 228.0, 230.0, 232.0, 234.0, 236.0, 238.0, 240.0, 242.0, 244.0, 246.0, 248.0, 250.0, 252.0, 254.0, 256.0, 258.0, 260.0, 262.0, 264.0, 266.0, 268.0, 270.0, 272.0, 274.0, 276.0, 278.0, 280.0, 282.0, 284.0, 286.0, 288.0, 290.0, 292.0, 294.0, 296.0, 298.0, 300.0, 302.0, 304.0, 306.0, 308.0, 310.0, 312.0, 314.0, 316.0, 318.0, 320.0, 322.0, 324.0, 326.0, 328.0, 330.0, 332.0, 334.0, 336.0, 338.0, 340.0, 342.0, 344.0, 346.0, 348.0, 350.0, 352.0, 354.0, 356.0, 358.0]}}, {"type": "Feature", "geometry": {"type": "Point", "coordinates": [12.51152750168634, 48.19374988888889]}, "properties": {"rank": 3, "elevation_m": 453.5, "combined_score": 0.7764, "terrain_score": 0.7764, "mean_visible_km": 5.09, "max_visible_km": 15.0, "coverage_fraction": 0.361, "horizon_km": [13.9, 13.8, 12.1, 14.7, 14.3, 13.7, 13.5, 12.7, 14.9, 14.8, 0.8, 0.8, 11.8, 0.8, 0.8, 0.8, 0.8, 0.6, 0.6, 0.6, 0.6, 0.6, 0.6, 13.1, 15.0, 15.0, 14.9, 15.0, 14.6, 0.9, 0.9, 0.7, 4.3, 4.3, 4.2, 4.1, 4.8, 4.7, 0.6, 0.6, 5.1, 5.2, 8.9, 0.6, 0.6, 4.9, 2.5, 1.1, 2.4, 7.7, 4.3, 2.3, 3.3, 3.3, 11.0, 11.1, 14.3, 13.7, 13.6, 13.0, 12.9, 12.9, 11.9, 11.8, 11.5, 11.0, 11.0, 5.1, 4.7, 10.4, 10.6, 10.4, 10.1, 10.4, 10.0, 1.5, 14.7, 9.0, 9.2, 9.2, 10.3, 0.9, 9.9, 4.8, 4.6, 4.6, 4.5, 4.5, 4.7, 4.9, 5.0, 4.8, 5.4, 4.0, 4.0, 4.5, 4.2, 4.6, 4.6, 4.6, 5.2, 5.1, 0.1, 0.1, 0.1, 0.1, 0.1, 0.1, 0.1, 0.1, 0.1, 0.1, 0.1, 0.1, 0.1, 0.1, 0.1, 0.1, 0.1, 0.1, 0.1, 0.1, 0.1, 0.1, 0.1, 0.1, 0.1, 0.1, 0.4, 0.4, 0.4, 0.1, 13.9, 13.5, 12.9, 0.1, 0.1, 0.1, 0.1, 0.1, 0.3, 0.1, 0.1, 0.1, 0.1, 0.1, 0.1, 0.1, 0.1, 0.1, 0.1, 0.1, 0.1, 0.1, 0.1, 0.1, 0.1, 0.1, 0.1, 0.1, 0.1, 0.1, 0.1, 0.1, 0.1, 0.1, 0.1, 0.1, 0.1, 13.6, 14.5, 14.1, 14.3, 13.9, 13.9, 14.4, 14.1, 14.0, 15.0, 14.0], "azimuths_deg": [0.0, 2.0, 4.0, 6.0, 8.0, 10.0, 12.0, 14.0, 16.0, 18.0, 20.0, 22.0, 24.0, 26.0, 28.0, 30.0, 32.0, 34.0, 36.0, 38.0, 40.0, 42.0, 44.0, 46.0, 48.0, 50.0, 52.0, 54.0, 56.0, 58.0, 60.0, 62.0, 64.0, 66.0, 68.0, 70.0, 72.0, 74.0, 76.0, 78.0, 80.0, 82.0, 84.0, 86.0, 88.0, 90.0, 92.0, 94.0, 96.0, 98.0, 100.0, 102.0, 104.0, 106.0, 108.0, 110.0, 112.0, 114.0, 116.0, 118.0, 120.0, 122.0, 124.0, 126.0, 128.0, 130.0, 132.0, 134.0, 136.0, 138.0, 140.0, 142.0, 144.0, 146.0, 148.0, 150.0, 152.0, 154.0, 156.0, 158.0, 160.0, 162.0, 164.0, 166.0, 168.0, 170.0, 172.0, 174.0, 176.0, 178.0, 180.0, 182.0, 184.0, 186.0, 188.0, 190.0, 192.0, 194.0, 196.0, 198.0, 200.0, 202.0, 204.0, 206.0, 208.0, 210.0, 212.0, 214.0, 216.0, 218.0, 220.0, 222.0, 224.0, 226.0, 228.0, 230.0, 232.0, 234.0, 236.0, 238.0, 240.0, 242.0, 244.0, 246.0, 248.0, 250.0, 252.0, 254.0, 256.0, 258.0, 260.0, 262.0, 264.0, 266.0, 268.0, 270.0, 272.0, 274.0, 276.0, 278.0, 280.0, 282.0, 284.0, 286.0, 288.0, 290.0, 292.0, 294.0, 296.0, 298.0, 300.0, 302.0, 304.0, 306.0, 308.0, 310.0, 312.0, 314.0, 316.0, 318.0, 320.0, 322.0, 324.0, 326.0, 328.0, 330.0, 332.0, 334.0, 336.0, 338.0, 340.0, 342.0, 344.0, 346.0, 348.0, 350.0, 352.0, 354.0, 356.0, 358.0]}}, {"type": "Feature", "geometry": {"type": "Point", "coordinates": [12.526805277403035, 48.204861]}, "properties": {"rank": 4, "elevation_m": 450.8, "combined_score": 0.7652, "terrain_score": 0.7652, "mean_visible_km": 7.05, "max_visible_km": 15.0, "coverage_fraction": 0.583, "horizon_km": [13.9, 13.4, 12.9, 12.3, 11.7, 14.5, 14.3, 13.8, 12.8, 14.7, 10.3, 10.3, 10.2, 10.0, 0.3, 0.3, 0.3, 0.3, 0.3, 14.2, 14.2, 0.6, 13.0, 11.4, 14.2, 13.0, 13.5, 13.4, 14.2, 14.0, 13.8, 14.9, 0.8, 0.8, 0.9, 2.2, 2.2, 13.4, 2.8, 2.8, 3.0, 2.8, 2.8, 2.7, 3.4, 4.5, 4.5, 3.9, 4.0, 3.9, 3.6, 3.4, 8.4, 3.9, 4.0, 3.6, 11.5, 10.8, 14.9, 13.5, 13.9, 13.3, 12.9, 13.2, 12.8, 12.7, 11.8, 11.7, 2.9, 11.4, 11.1, 11.1, 11.0, 10.7, 10.7, 10.9, 10.6, 10.6, 10.8, 7.6, 8.0, 11.9, 9.8, 10.0, 7.3, 11.0, 10.8, 14.0, 13.7, 12.9, 5.9, 5.8, 5.9, 5.7, 12.0, 6.1, 7.0, 6.8, 5.5, 6.7, 6.2, 6.1, 6.5, 6.7, 6.8, 10.1, 12.1, 10.0, 13.7, 7.1, 6.9, 10.4, 11.0, 14.5, 14.5, 11.8, 11.4, 10.6, 10.8, 0.1, 0.1, 0.1, 0.1, 0.1, 0.1, 0.1, 0.1, 0.1, 0.1, 0.1, 0.1, 0.1, 0.1, 0.1, 0.1, 0.1, 0.1, 0.1, 0.1, 0.1, 0.1, 0.1, 0.1, 0.1, 0.1, 0.1, 0.1, 0.1, 0.1, 0.1, 0.1, 0.1, 0.1, 0.1, 0.1, 0.1, 0.1, 0.1, 0.1, 0.1, 0.1, 0.1, 0.1, 0.1, 0.1, 13.8, 12.9, 13.8, 13.3, 13.4, 13.0, 14.0, 13.4, 14.2, 14.5, 15.0, 9.5, 12.8, 10.0, 14.6], "azimuths_deg": [0.0, 2.0, 4.0, 6.0, 8.0, 10.0, 12.0, 14.0, 16.0, 18.0, 20.0, 22.0, 24.0, 26.0, 28.0, 30.0, 32.0, 34.0, 36.0, 38.0, 40.0, 42.0, 44.0, 46.0, 48.0, 50.0, 52.0, 54.0, 56.0, 58.0, 60.0, 62.0, 64.0, 66.0, 68.0, 70.0, 72.0, 74.0, 76.0, 78.0, 80.0, 82.0, 84.0, 86.0, 88.0, 90.0, 92.0, 94.0, 96.0, 98.0, 100.0, 102.0, 104.0, 106.0, 108.0, 110.0, 112.0, 114.0, 116.0, 118.0, 120.0, 122.0, 124.0, 126.0, 128.0, 130.0, 132.0, 134.0, 136.0, 138.0, 140.0, 142.0, 144.0, 146.0, 148.0, 150.0, 152.0, 154.0, 156.0, 158.0, 160.0, 162.0, 164.0, 166.0, 168.0, 170.0, 172.0, 174.0, 176.0, 178.0, 180.0, 182.0, 184.0, 186.0, 188.0, 190.0, 192.0, 194.0, 196.0, 198.0, 200.0, 202.0, 204.0, 206.0, 208.0, 210.0, 212.0, 214.0, 216.0, 218.0, 220.0, 222.0, 224.0, 226.0, 228.0, 230.0, 232.0, 234.0, 236.0, 238.0, 240.0, 242.0, 244.0, 246.0, 248.0, 250.0, 252.0, 254.0, 256.0, 258.0, 260.0, 262.0, 264.0, 266.0, 268.0, 270.0, 272.0, 274.0, 276.0, 278.0, 280.0, 282.0, 284.0, 286.0, 288.0, 290.0, 292.0, 294.0, 296.0, 298.0, 300.0, 302.0, 304.0, 306.0, 308.0, 310.0, 312.0, 314.0, 316.0, 318.0, 320.0, 322.0, 324.0, 326.0, 328.0, 330.0, 332.0, 334.0, 336.0, 338.0, 340.0, 342.0, 344.0, 346.0, 348.0, 350.0, 352.0, 354.0, 356.0, 358.0]}}, {"type": "Feature", "geometry": {"type": "Point", "coordinates": [12.535138609612142, 48.20624988888889]}, "properties": {"rank": 5, "elevation_m": 447.3, "combined_score": 0.7636, "terrain_score": 0.7636, "mean_visible_km": 4.48, "max_visible_km": 15.0, "coverage_fraction": 0.372, "horizon_km": [0.1, 0.1, 0.1, 0.1, 0.1, 0.1, 0.1, 0.1, 0.2, 0.2, 0.2, 0.2, 0.2, 0.2, 0.2, 0.2, 0.2, 0.2, 0.2, 0.2, 0.2, 0.2, 0.2, 0.2, 0.2, 0.2, 0.2, 0.2, 0.2, 0.2, 13.2, 14.3, 1.1, 1.4, 1.6, 1.5, 1.6, 12.8, 2.1, 2.5, 2.4, 2.3, 2.2, 2.2, 2.1, 2.1, 2.8, 3.9, 3.3, 3.3, 2.4, 3.4, 1.4, 3.0, 2.9, 1.6, 3.4, 3.4, 3.1, 14.3, 13.1, 10.1, 12.9, 12.5, 12.3, 12.2, 12.4, 11.7, 11.5, 11.3, 11.1, 10.8, 10.8, 10.9, 2.7, 10.5, 1.7, 10.7, 5.2, 10.8, 10.6, 5.0, 7.7, 9.2, 9.8, 10.0, 11.3, 11.0, 13.6, 13.7, 9.9, 14.7, 6.7, 6.1, 6.0, 6.1, 6.0, 6.5, 6.6, 7.2, 7.2, 5.8, 6.5, 10.3, 6.9, 7.2, 0.3, 0.3, 0.3, 0.3, 0.3, 0.3, 0.3, 11.6, 10.7, 10.5, 11.8, 11.4, 11.3, 12.7, 11.5, 1.6, 11.1, 0.6, 0.6, 4.6, 4.7, 0.7, 0.7, 0.7, 0.7, 15.0, 0.7, 0.7, 0.7, 14.7, 15.0, 13.4, 13.6, 12.8, 0.5, 0.5, 0.5, 0.5, 0.5, 0.5, 0.5, 7.2, 7.3, 14.6, 13.8, 0.2, 0.2, 0.2, 0.1, 0.4, 0.1, 0.1, 0.1, 0.1, 0.1, 0.1, 0.1, 0.1, 0.1, 0.1, 0.1, 0.1, 0.1, 0.1, 0.1, 0.1, 0.1, 0.1, 0.1, 0.1, 0.1, 0.1, 0.1, 0.1], "azimuths_deg": [0.0, 2.0, 4.0, 6.0, 8.0, 10.0, 12.0, 14.0, 16.0, 18.0, 20.0, 22.0, 24.0, 26.0, 28.0, 30.0, 32.0, 34.0, 36.0, 38.0, 40.0, 42.0, 44.0, 46.0, 48.0, 50.0, 52.0, 54.0, 56.0, 58.0, 60.0, 62.0, 64.0, 66.0, 68.0, 70.0, 72.0, 74.0, 76.0, 78.0, 80.0, 82.0, 84.0, 86.0, 88.0, 90.0, 92.0, 94.0, 96.0, 98.0, 100.0, 102.0, 104.0, 106.0, 108.0, 110.0, 112.0, 114.0, 116.0, 118.0, 120.0, 122.0, 124.0, 126.0, 128.0, 130.0, 132.0, 134.0, 136.0, 138.0, 140.0, 142.0, 144.0, 146.0, 148.0, 150.0, 152.0, 154.0, 156.0, 158.0, 160.0, 162.0, 164.0, 166.0, 168.0, 170.0, 172.0, 174.0, 176.0, 178.0, 180.0, 182.0, 184.0, 186.0, 188.0, 190.0, 192.0, 194.0, 196.0, 198.0, 200.0, 202.0, 204.0, 206.0, 208.0, 210.0, 212.0, 214.0, 216.0, 218.0, 220.0, 222.0, 224.0, 226.0, 228.0, 230.0, 232.0, 234.0, 236.0, 238.0, 240.0, 242.0, 244.0, 246.0, 248.0, 250.0, 252.0, 254.0, 256.0, 258.0, 260.0, 262.0, 264.0, 266.0, 268.0, 270.0, 272.0, 274.0, 276.0, 278.0, 280.0, 282.0, 284.0, 286.0, 288.0, 290.0, 292.0, 294.0, 296.0, 298.0, 300.0, 302.0, 304.0, 306.0, 308.0, 310.0, 312.0, 314.0, 316.0, 318.0, 320.0, 322.0, 324.0, 326.0, 328.0, 330.0, 332.0, 334.0, 336.0, 338.0, 340.0, 342.0, 344.0, 346.0, 348.0, 350.0, 352.0, 354.0, 356.0, 358.0]}}, {"type": "Feature", "geometry": {"type": "Point", "coordinates": [12.458749731028668, 48.23124988888889]}, "properties": {"rank": 6, "elevation_m": 437.5, "combined_score": 0.7516, "terrain_score": 0.7516, "mean_visible_km": 3.45, "max_visible_km": 15.0, "coverage_fraction": 0.3, "horizon_km": [9.5, 9.3, 9.4, 10.0, 10.1, 10.3, 8.5, 11.1, 8.2, 7.4, 10.4, 7.3, 8.1, 13.7, 7.5, 7.5, 8.3, 11.2, 13.7, 13.4, 14.5, 14.5, 12.4, 12.1, 11.9, 11.6, 10.9, 10.8, 11.1, 11.3, 12.1, 12.3, 0.5, 14.2, 14.6, 14.2, 14.8, 13.5, 14.9, 15.0, 8.3, 12.5, 14.6, 13.2, 0.4, 0.4, 0.4, 0.4, 0.4, 0.4, 0.4, 0.4, 0.4, 0.4, 0.4, 0.4, 0.1, 0.1, 0.1, 0.1, 0.1, 0.1, 0.1, 0.1, 0.1, 0.1, 0.1, 0.1, 0.1, 0.1, 0.1, 0.1, 0.1, 0.8, 0.8, 0.8, 0.8, 0.9, 0.9, 10.4, 9.0, 4.6, 4.4, 4.4, 0.3, 0.4, 0.4, 0.4, 0.4, 0.4, 0.4, 0.4, 0.4, 0.4, 0.4, 0.4, 0.4, 0.4, 0.4, 0.4, 0.4, 0.4, 0.5, 0.5, 0.4, 8.7, 0.6, 0.6, 0.2, 0.2, 0.2, 0.2, 0.2, 0.2, 0.2, 0.1, 0.1, 0.1, 0.1, 0.1, 0.1, 0.1, 0.1, 0.1, 0.1, 0.1, 0.1, 0.1, 0.1, 0.1, 0.1, 0.1, 0.1, 0.1, 0.1, 0.1, 0.1, 0.1, 0.1, 0.1, 0.1, 0.1, 0.1, 0.1, 0.1, 0.1, 0.1, 0.1, 0.1, 0.1, 0.1, 0.1, 0.1, 0.1, 0.1, 0.1, 0.1, 0.1, 0.1, 0.1, 0.1, 0.1, 0.1, 0.1, 0.1, 0.1, 0.1, 0.1, 0.1, 0.1, 0.1, 9.3, 7.2, 6.7, 0.7, 8.9, 5.8, 9.5, 6.6, 6.5], "azimuths_deg": [0.0, 2.0, 4.0, 6.0, 8.0, 10.0, 12.0, 14.0, 16.0, 18.0, 20.0, 22.0, 24.0, 26.0, 28.0, 30.0, 32.0, 34.0, 36.0, 38.0, 40.0, 42.0, 44.0, 46.0, 48.0, 50.0, 52.0, 54.0, 56.0, 58.0, 60.0, 62.0, 64.0, 66.0, 68.0, 70.0, 72.0, 74.0, 76.0, 78.0, 80.0, 82.0, 84.0, 86.0, 88.0, 90.0, 92.0, 94.0, 96.0, 98.0, 100.0, 102.0, 104.0, 106.0, 108.0, 110.0, 112.0, 114.0, 116.0, 118.0, 120.0, 122.0, 124.0, 126.0, 128.0, 130.0, 132.0, 134.0, 136.0, 138.0, 140.0, 142.0, 144.0, 146.0, 148.0, 150.0, 152.0, 154.0, 156.0, 158.0, 160.0, 162.0, 164.0, 166.0, 168.0, 170.0, 172.0, 174.0, 176.0, 178.0, 180.0, 182.0, 184.0, 186.0, 188.0, 190.0, 192.0, 194.0, 196.0, 198.0, 200.0, 202.0, 204.0, 206.0, 208.0, 210.0, 212.0, 214.0, 216.0, 218.0, 220.0, 222.0, 224.0, 226.0, 228.0, 230.0, 232.0, 234.0, 236.0, 238.0, 240.0, 242.0, 244.0, 246.0, 248.0, 250.0, 252.0, 254.0, 256.0, 258.0, 260.0, 262.0, 264.0, 266.0, 268.0, 270.0, 272.0, 274.0, 276.0, 278.0, 280.0, 282.0, 284.0, 286.0, 288.0, 290.0, 292.0, 294.0, 296.0, 298.0, 300.0, 302.0, 304.0, 306.0, 308.0, 310.0, 312.0, 314.0, 316.0, 318.0, 320.0, 322.0, 324.0, 326.0, 328.0, 330.0, 332.0, 334.0, 336.0, 338.0, 340.0, 342.0, 344.0, 346.0, 348.0, 350.0, 352.0, 354.0, 356.0, 358.0]}}, {"type": "Feature", "geometry": {"type": "Point", "coordinates": [12.530971943507588, 48.19930544444444]}, "properties": {"rank": 7, "elevation_m": 451.0, "combined_score": 0.7494, "terrain_score": 0.7494, "mean_visible_km": 9.7, "max_visible_km": 15.0, "coverage_fraction": 0.778, "horizon_km": [11.4, 13.6, 12.9, 12.7, 15.0, 15.0, 14.4, 13.8, 10.4, 10.7, 11.3, 10.4, 10.4, 14.8, 14.9, 14.3, 14.9, 14.2, 14.5, 14.4, 13.0, 13.4, 11.7, 14.2, 13.5, 13.9, 13.5, 14.7, 14.3, 13.9, 14.9, 2.7, 2.7, 2.9, 2.7, 2.7, 2.5, 3.9, 3.4, 4.2, 3.7, 4.2, 3.6, 3.6, 3.6, 3.2, 3.1, 8.5, 3.0, 3.5, 3.5, 3.0, 1.4, 3.0, 3.0, 10.8, 10.2, 9.9, 13.0, 13.7, 12.8, 12.5, 1.3, 12.0, 12.1, 2.3, 2.3, 11.0, 10.8, 10.4, 10.4, 0.9, 10.5, 10.1, 4.8, 10.2, 4.7, 9.9, 10.1, 7.0, 7.0, 11.3, 9.0, 9.3, 9.2, 6.6, 10.3, 12.8, 12.8, 15.0, 15.0, 5.9, 5.7, 5.2, 5.3, 11.4, 5.4, 5.8, 6.5, 6.3, 6.3, 5.0, 5.7, 5.6, 5.8, 5.8, 6.3, 9.4, 10.2, 9.7, 12.2, 14.6, 6.9, 10.3, 10.8, 10.0, 14.9, 11.6, 11.3, 10.6, 10.7, 10.4, 10.9, 10.4, 10.5, 11.1, 2.7, 2.5, 3.8, 4.4, 4.3, 14.9, 15.0, 14.3, 14.8, 15.0, 13.8, 14.4, 14.9, 13.0, 13.3, 12.5, 1.2, 14.3, 15.0, 11.8, 1.3, 9.1, 6.1, 7.0, 14.7, 14.8, 14.7, 15.0, 15.0, 13.2, 12.8, 12.7, 14.3, 15.0, 15.0, 0.8, 12.8, 0.8, 0.8, 0.8, 13.6, 14.5, 14.0, 14.1, 13.7, 13.3, 14.2, 15.0, 13.6, 10.2, 13.4, 13.3, 13.2, 14.8], "azimuths_deg": [0.0, 2.0, 4.0, 6.0, 8.0, 10.0, 12.0, 14.0, 16.0, 18.0, 20.0, 22.0, 24.0, 26.0, 28.0, 30.0, 32.0, 34.0, 36.0, 38.0, 40.0, 42.0, 44.0, 46.0, 48.0, 50.0, 52.0, 54.0, 56.0, 58.0, 60.0, 62.0, 64.0, 66.0, 68.0, 70.0, 72.0, 74.0, 76.0, 78.0, 80.0, 82.0, 84.0, 86.0, 88.0, 90.0, 92.0, 94.0, 96.0, 98.0, 100.0, 102.0, 104.0, 106.0, 108.0, 110.0, 112.0, 114.0, 116.0, 118.0, 120.0, 122.0, 124.0, 126.0, 128.0, 130.0, 132.0, 134.0, 136.0, 138.0, 140.0, 142.0, 144.0, 146.0, 148.0, 150.0, 152.0, 154.0, 156.0, 158.0, 160.0, 162.0, 164.0, 166.0, 168.0, 170.0, 172.0, 174.0, 176.0, 178.0, 180.0, 182.0, 184.0, 186.0, 188.0, 190.0, 192.0, 194.0, 196.0, 198.0, 200.0, 202.0, 204.0, 206.0, 208.0, 210.0, 212.0, 214.0, 216.0, 218.0, 220.0, 222.0, 224.0, 226.0, 228.0, 230.0, 232.0, 234.0, 236.0, 238.0, 240.0, 242.0, 244.0, 246.0, 248.0, 250.0, 252.0, 254.0, 256.0, 258.0, 260.0, 262.0, 264.0, 266.0, 268.0, 270.0, 272.0, 274.0, 276.0, 278.0, 280.0, 282.0, 284.0, 286.0, 288.0, 290.0, 292.0, 294.0, 296.0, 298.0, 300.0, 302.0, 304.0, 306.0, 308.0, 310.0, 312.0, 314.0, 316.0, 318.0, 320.0, 322.0, 324.0, 326.0, 328.0, 330.0, 332.0, 334.0, 336.0, 338.0, 340.0, 342.0, 344.0, 346.0, 348.0, 350.0, 352.0, 354.0, 356.0, 358.0]}}, {"type": "Feature", "geometry": {"type": "Point", "coordinates": [12.647638594435076, 48.20347211111111]}, "properties": {"rank": 8, "elevation_m": 446.0, "combined_score": 0.7488, "terrain_score": 0.7488, "mean_visible_km": 8.92, "max_visible_km": 15.0, "coverage_fraction": 0.772, "horizon_km": [12.3, 12.3, 12.4, 9.5, 8.6, 8.6, 8.1, 8.1, 8.0, 8.0, 8.6, 7.7, 8.3, 12.4, 13.4, 14.5, 14.9, 13.9, 15.0, 10.4, 10.1, 13.8, 14.5, 14.2, 14.2, 14.2, 15.0, 13.3, 13.1, 15.0, 0.7, 0.7, 1.4, 1.4, 1.4, 5.6, 6.7, 5.8, 6.4, 6.4, 6.4, 4.3, 5.0, 4.8, 4.6, 4.6, 4.6, 4.5, 4.5, 4.4, 4.4, 12.5, 12.8, 11.9, 10.0, 10.4, 10.3, 9.7, 9.2, 9.4, 9.2, 9.2, 11.5, 14.7, 15.0, 15.0, 14.3, 14.0, 15.0, 14.4, 9.0, 1.1, 7.9, 7.8, 7.2, 7.0, 7.6, 6.9, 6.9, 4.5, 7.2, 4.4, 7.3, 7.3, 7.3, 7.4, 7.6, 4.7, 4.8, 7.1, 5.1, 7.8, 8.0, 5.5, 5.7, 5.9, 8.5, 6.1, 9.4, 9.2, 9.3, 9.9, 10.7, 10.7, 15.0, 15.0, 11.4, 11.2, 12.9, 13.2, 12.5, 15.0, 14.7, 14.7, 5.5, 3.3, 12.2, 7.7, 12.2, 11.5, 11.1, 11.3, 13.3, 13.7, 14.6, 14.4, 7.5, 7.2, 5.7, 5.3, 1.3, 1.3, 1.3, 0.5, 0.5, 0.5, 0.5, 0.5, 0.5, 4.5, 13.8, 2.2, 2.7, 1.0, 1.0, 1.0, 1.1, 1.1, 1.1, 1.1, 1.2, 1.2, 14.1, 15.0, 15.0, 15.0, 14.3, 15.0, 14.0, 13.4, 14.4, 14.4, 12.7, 11.4, 14.6, 11.0, 11.0, 10.1, 13.4, 15.0, 9.4, 14.8, 14.6, 14.1, 15.0, 13.2, 8.1, 8.1, 8.0, 12.3], "azimuths_deg": [0.0, 2.0, 4.0, 6.0, 8.0, 10.0, 12.0, 14.0, 16.0, 18.0, 20.0, 22.0, 24.0, 26.0, 28.0, 30.0, 32.0, 34.0, 36.0, 38.0, 40.0, 42.0, 44.0, 46.0, 48.0, 50.0, 52.0, 54.0, 56.0, 58.0, 60.0, 62.0, 64.0, 66.0, 68.0, 70.0, 72.0, 74.0, 76.0, 78.0, 80.0, 82.0, 84.0, 86.0, 88.0, 90.0, 92.0, 94.0, 96.0, 98.0, 100.0, 102.0, 104.0, 106.0, 108.0, 110.0, 112.0, 114.0, 116.0, 118.0, 120.0, 122.0, 124.0, 126.0, 128.0, 130.0, 132.0, 134.0, 136.0, 138.0, 140.0, 142.0, 144.0, 146.0, 148.0, 150.0, 152.0, 154.0, 156.0, 158.0, 160.0, 162.0, 164.0, 166.0, 168.0, 170.0, 172.0, 174.0, 176.0, 178.0, 180.0, 182.0, 184.0, 186.0, 188.0, 190.0, 192.0, 194.0, 196.0, 198.0, 200.0, 202.0, 204.0, 206.0, 208.0, 210.0, 212.0, 214.0, 216.0, 218.0, 220.0, 222.0, 224.0, 226.0, 228.0, 230.0, 232.0, 234.0, 236.0, 238.0, 240.0, 242.0, 244.0, 246.0, 248.0, 250.0, 252.0, 254.0, 256.0, 258.0, 260.0, 262.0, 264.0, 266.0, 268.0, 270.0, 272.0, 274.0, 276.0, 278.0, 280.0, 282.0, 284.0, 286.0, 288.0, 290.0, 292.0, 294.0, 296.0, 298.0, 300.0, 302.0, 304.0, 306.0, 308.0, 310.0, 312.0, 314.0, 316.0, 318.0, 320.0, 322.0, 324.0, 326.0, 328.0, 330.0, 332.0, 334.0, 336.0, 338.0, 340.0, 342.0, 344.0, 346.0, 348.0, 350.0, 352.0, 354.0, 356.0, 358.0]}}, {"type": "Feature", "geometry": {"type": "Point", "coordinates": [12.503194169477235, 48.186805444444445]}, "properties": {"rank": 9, "elevation_m": 459.0, "combined_score": 0.744, "terrain_score": 0.744, "mean_visible_km": 8.85, "max_visible_km": 15.0, "coverage_fraction": 0.706, "horizon_km": [14.8, 11.4, 14.6, 12.1, 13.0, 12.9, 14.6, 14.0, 13.7, 15.0, 14.8, 0.7, 12.5, 12.9, 13.1, 12.6, 13.0, 14.8, 13.9, 2.6, 2.6, 14.4, 13.8, 14.1, 14.4, 15.0, 15.0, 4.7, 1.4, 4.3, 5.2, 5.2, 5.3, 5.7, 5.6, 5.1, 5.4, 5.9, 5.3, 3.2, 9.6, 5.6, 5.0, 4.8, 9.9, 4.8, 3.8, 4.6, 9.4, 3.6, 10.2, 11.8, 11.5, 11.4, 14.4, 14.0, 13.8, 13.1, 13.1, 13.1, 12.0, 11.8, 11.5, 11.0, 11.0, 10.7, 10.4, 10.7, 10.3, 9.9, 9.8, 10.0, 12.5, 8.2, 8.6, 8.6, 8.7, 9.8, 4.3, 4.1, 4.0, 3.9, 3.9, 4.0, 4.2, 4.1, 4.2, 5.0, 3.3, 3.2, 3.6, 3.4, 3.4, 3.6, 3.7, 3.7, 3.8, 3.6, 7.4, 4.2, 4.2, 6.6, 13.9, 7.0, 7.2, 7.8, 7.4, 11.1, 4.4, 4.6, 4.2, 14.7, 8.0, 8.0, 7.5, 13.4, 9.5, 8.6, 8.8, 8.1, 8.0, 9.6, 8.0, 8.4, 8.0, 8.1, 8.2, 8.7, 2.3, 1.9, 2.7, 2.7, 13.5, 13.4, 13.2, 12.8, 12.2, 14.4, 13.0, 14.6, 12.3, 13.7, 13.2, 2.2, 2.2, 11.2, 10.7, 10.3, 13.9, 14.9, 1.9, 0.7, 0.7, 0.7, 0.7, 0.7, 0.7, 0.7, 0.7, 14.4, 0.6, 0.6, 12.5, 14.1, 14.8, 15.0, 14.9, 15.0, 14.8, 15.0, 14.9, 14.1, 15.0, 14.6, 14.5, 14.4, 14.2, 14.8, 12.0, 11.6], "azimuths_deg": [0.0, 2.0, 4.0, 6.0, 8.0, 10.0, 12.0, 14.0, 16.0, 18.0, 20.0, 22.0, 24.0, 26.0, 28.0, 30.0, 32.0, 34.0, 36.0, 38.0, 40.0, 42.0, 44.0, 46.0, 48.0, 50.0, 52.0, 54.0, 56.0, 58.0, 60.0, 62.0, 64.0, 66.0, 68.0, 70.0, 72.0, 74.0, 76.0, 78.0, 80.0, 82.0, 84.0, 86.0, 88.0, 90.0, 92.0, 94.0, 96.0, 98.0, 100.0, 102.0, 104.0, 106.0, 108.0, 110.0, 112.0, 114.0, 116.0, 118.0, 120.0, 122.0, 124.0, 126.0, 128.0, 130.0, 132.0, 134.0, 136.0, 138.0, 140.0, 142.0, 144.0, 146.0, 148.0, 150.0, 152.0, 154.0, 156.0, 158.0, 160.0, 162.0, 164.0, 166.0, 168.0, 170.0, 172.0, 174.0, 176.0, 178.0, 180.0, 182.0, 184.0, 186.0, 188.0, 190.0, 192.0, 194.0, 196.0, 198.0, 200.0, 202.0, 204.0, 206.0, 208.0, 210.0, 212.0, 214.0, 216.0, 218.0, 220.0, 222.0, 224.0, 226.0, 228.0, 230.0, 232.0, 234.0, 236.0, 238.0, 240.0, 242.0, 244.0, 246.0, 248.0, 250.0, 252.0, 254.0, 256.0, 258.0, 260.0, 262.0, 264.0, 266.0, 268.0, 270.0, 272.0, 274.0, 276.0, 278.0, 280.0, 282.0, 284.0, 286.0, 288.0, 290.0, 292.0, 294.0, 296.0, 298.0, 300.0, 302.0, 304.0, 306.0, 308.0, 310.0, 312.0, 314.0, 316.0, 318.0, 320.0, 322.0, 324.0, 326.0, 328.0, 330.0, 332.0, 334.0, 336.0, 338.0, 340.0, 342.0, 344.0, 346.0, 348.0, 350.0, 352.0, 354.0, 356.0, 358.0]}}, {"type": "Feature", "geometry": {"type": "Point", "coordinates": [12.665694147554806, 48.207638777777774]}, "properties": {"rank": 10, "elevation_m": 442.0, "combined_score": 0.7374, "terrain_score": 0.7374, "mean_visible_km": 6.65, "max_visible_km": 15.0, "coverage_fraction": 0.617, "horizon_km": [8.1, 8.0, 7.4, 7.4, 7.6, 7.3, 7.8, 8.0, 7.4, 11.9, 11.5, 11.4, 12.4, 13.4, 13.8, 14.0, 9.2, 9.2, 8.9, 8.8, 13.0, 13.0, 13.0, 12.5, 13.0, 13.7, 11.6, 11.7, 13.9, 13.9, 14.8, 14.3, 14.5, 15.0, 6.8, 4.2, 5.3, 4.3, 4.6, 5.0, 5.7, 0.4, 4.6, 2.9, 2.9, 3.5, 3.5, 3.3, 3.3, 3.3, 3.3, 3.3, 3.5, 3.3, 11.6, 10.9, 8.8, 8.9, 9.3, 9.3, 8.8, 8.7, 8.5, 8.5, 8.2, 10.5, 14.8, 14.6, 15.0, 14.9, 14.4, 13.8, 13.7, 9.1, 8.3, 11.1, 11.9, 7.6, 7.5, 7.2, 7.0, 7.0, 7.6, 6.9, 7.0, 7.3, 7.4, 7.5, 7.5, 8.1, 7.7, 8.0, 5.3, 4.8, 8.4, 5.2, 8.6, 8.8, 9.0, 6.3, 6.6, 10.3, 7.0, 10.3, 10.9, 11.8, 11.7, 5.9, 12.5, 12.6, 14.4, 13.7, 13.9, 2.2, 6.9, 11.5, 6.8, 6.9, 4.6, 13.8, 12.7, 12.7, 13.9, 14.2, 1.3, 1.3, 7.6, 1.9, 2.7, 2.7, 0.7, 0.7, 6.4, 5.8, 4.1, 7.5, 7.3, 2.1, 2.5, 2.4, 0.1, 0.1, 0.1, 0.1, 0.1, 0.1, 0.1, 0.1, 0.1, 0.1, 0.1, 0.1, 0.1, 0.1, 0.1, 0.1, 0.1, 0.1, 0.1, 0.1, 0.1, 0.1, 0.1, 0.1, 0.1, 0.1, 0.1, 0.1, 0.1, 0.1, 0.2, 0.2, 0.2, 0.2, 0.2, 0.2, 0.2, 0.2, 0.2, 8.0], "azimuths_deg": [0.0, 2.0, 4.0, 6.0, 8.0, 10.0, 12.0, 14.0, 16.0, 18.0, 20.0, 22.0, 24.0, 26.0, 28.0, 30.0, 32.0, 34.0, 36.0, 38.0, 40.0, 42.0, 44.0, 46.0, 48.0, 50.0, 52.0, 54.0, 56.0, 58.0, 60.0, 62.0, 64.0, 66.0, 68.0, 70.0, 72.0, 74.0, 76.0, 78.0, 80.0, 82.0, 84.0, 86.0, 88.0, 90.0, 92.0, 94.0, 96.0, 98.0, 100.0, 102.0, 104.0, 106.0, 108.0, 110.0, 112.0, 114.0, 116.0, 118.0, 120.0, 122.0, 124.0, 126.0, 128.0, 130.0, 132.0, 134.0, 136.0, 138.0, 140.0, 142.0, 144.0, 146.0, 148.0, 150.0, 152.0, 154.0, 156.0, 158.0, 160.0, 162.0, 164.0, 166.0, 168.0, 170.0, 172.0, 174.0, 176.0, 178.0, 180.0, 182.0, 184.0, 186.0, 188.0, 190.0, 192.0, 194.0, 196.0, 198.0, 200.0, 202.0, 204.0, 206.0, 208.0, 210.0, 212.0, 214.0, 216.0, 218.0, 220.0, 222.0, 224.0, 226.0, 228.0, 230.0, 232.0, 234.0, 236.0, 238.0, 240.0, 242.0, 244.0, 246.0, 248.0, 250.0, 252.0, 254.0, 256.0, 258.0, 260.0, 262.0, 264.0, 266.0, 268.0, 270.0, 272.0, 274.0, 276.0, 278.0, 280.0, 282.0, 284.0, 286.0, 288.0, 290.0, 292.0, 294.0, 296.0, 298.0, 300.0, 302.0, 304.0, 306.0, 308.0, 310.0, 312.0, 314.0, 316.0, 318.0, 320.0, 322.0, 324.0, 326.0, 328.0, 330.0, 332.0, 334.0, 336.0, 338.0, 340.0, 342.0, 344.0, 346.0, 348.0, 350.0, 352.0, 354.0, 356.0, 358.0]}}, {"type": "Feature", "geometry": {"type": "Point", "coordinates": [12.635138596121417, 48.207638777777774]}, "properties": {"rank": 11, "elevation_m": 444.5, "combined_score": 0.7349, "terrain_score": 0.7349, "mean_visible_km": 8.58, "max_visible_km": 15.0, "coverage_fraction": 0.811, "horizon_km": [7.6, 7.5, 11.8, 9.1, 12.0, 12.7, 9.2, 8.3, 8.4, 8.4, 8.0, 7.9, 8.2, 8.4, 8.7, 7.7, 7.6, 14.0, 15.0, 14.1, 13.3, 13.9, 10.7, 10.4, 14.9, 14.6, 14.6, 14.7, 14.2, 13.5, 13.7, 6.9, 7.3, 7.7, 7.5, 0.9, 0.9, 7.0, 7.1, 7.9, 6.8, 7.3, 8.0, 2.2, 5.2, 5.8, 5.6, 5.5, 5.5, 5.5, 5.5, 5.5, 14.0, 13.4, 11.0, 11.0, 11.3, 10.8, 10.3, 10.5, 10.1, 11.8, 12.5, 10.5, 10.6, 2.1, 0.7, 0.6, 0.6, 0.6, 0.6, 8.7, 8.1, 7.9, 8.5, 7.7, 5.2, 5.2, 8.0, 8.1, 8.0, 8.5, 8.0, 8.2, 5.6, 7.7, 7.7, 8.2, 8.4, 8.5, 6.2, 8.7, 6.4, 8.8, 9.2, 9.7, 9.4, 10.0, 10.1, 10.7, 10.8, 10.6, 0.7, 0.7, 0.7, 0.7, 0.8, 0.8, 12.5, 5.2, 5.2, 14.4, 13.9, 7.3, 7.3, 7.7, 10.2, 11.8, 10.8, 12.4, 11.1, 0.9, 5.9, 13.7, 6.5, 4.5, 1.3, 1.3, 1.3, 4.6, 4.2, 4.2, 3.5, 4.1, 4.6, 5.3, 5.2, 1.2, 1.7, 12.7, 13.7, 14.7, 14.7, 14.6, 13.6, 14.0, 14.0, 14.3, 0.1, 0.1, 0.1, 0.1, 0.1, 15.0, 0.1, 14.9, 14.4, 13.1, 14.0, 13.0, 15.0, 13.4, 13.5, 11.8, 15.0, 13.8, 10.3, 10.0, 10.2, 9.4, 14.1, 13.9, 8.7, 15.0, 14.7, 14.5, 13.8, 12.6, 12.3, 7.6], "azimuths_deg": [0.0, 2.0, 4.0, 6.0, 8.0, 10.0, 12.0, 14.0, 16.0, 18.0, 20.0, 22.0, 24.0, 26.0, 28.0, 30.0, 32.0, 34.0, 36.0, 38.0, 40.0, 42.0, 44.0, 46.0, 48.0, 50.0, 52.0, 54.0, 56.0, 58.0, 60.0, 62.0, 64.0, 66.0, 68.0, 70.0, 72.0, 74.0, 76.0, 78.0, 80.0, 82.0, 84.0, 86.0, 88.0, 90.0, 92.0, 94.0, 96.0, 98.0, 100.0, 102.0, 104.0, 106.0, 108.0, 110.0, 112.0, 114.0, 116.0, 118.0, 120.0, 122.0, 124.0, 126.0, 128.0, 130.0, 132.0, 134.0, 136.0, 138.0, 140.0, 142.0, 144.0, 146.0, 148.0, 150.0, 152.0, 154.0, 156.0, 158.0, 160.0, 162.0, 164.0, 166.0, 168.0, 170.0, 172.0, 174.0, 176.0, 178.0, 180.0, 182.0, 184.0, 186.0, 188.0, 190.0, 192.0, 194.0, 196.0, 198.0, 200.0, 202.0, 204.0, 206.0, 208.0, 210.0, 212.0, 214.0, 216.0, 218.0, 220.0, 222.0, 224.0, 226.0, 228.0, 230.0, 232.0, 234.0, 236.0, 238.0, 240.0, 242.0, 244.0, 246.0, 248.0, 250.0, 252.0, 254.0, 256.0, 258.0, 260.0, 262.0, 264.0, 266.0, 268.0, 270.0, 272.0, 274.0, 276.0, 278.0, 280.0, 282.0, 284.0, 286.0, 288.0, 290.0, 292.0, 294.0, 296.0, 298.0, 300.0, 302.0, 304.0, 306.0, 308.0, 310.0, 312.0, 314.0, 316.0, 318.0, 320.0, 322.0, 324.0, 326.0, 328.0, 330.0, 332.0, 334.0, 336.0, 338.0, 340.0, 342.0, 344.0, 346.0, 348.0, 350.0, 352.0, 354.0, 356.0, 358.0]}}, {"type": "Feature", "geometry": {"type": "Point", "coordinates": [12.546249719224283, 48.20208322222222]}, "properties": {"rank": 12, "elevation_m": 450.5, "combined_score": 0.7274, "terrain_score": 0.7274, "mean_visible_km": 8.87, "max_visible_km": 15.0, "coverage_fraction": 0.739, "horizon_km": [12.5, 11.9, 14.6, 14.9, 14.3, 12.5, 14.6, 10.1, 9.9, 9.7, 9.7, 14.8, 14.1, 14.2, 14.3, 14.4, 14.5, 14.9, 15.0, 10.4, 10.6, 13.9, 13.2, 12.5, 12.8, 12.4, 13.3, 13.1, 12.7, 1.6, 1.6, 1.6, 1.5, 1.5, 1.5, 1.7, 2.7, 2.1, 2.1, 2.0, 2.0, 5.5, 3.1, 3.1, 1.6, 2.5, 2.5, 2.5, 2.5, 2.1, 2.1, 2.0, 6.9, 7.1, 2.4, 2.5, 2.5, 9.8, 2.0, 13.4, 12.1, 9.2, 12.0, 11.8, 11.4, 8.7, 10.4, 8.3, 10.6, 10.5, 10.2, 10.3, 9.9, 2.4, 10.0, 10.1, 9.7, 9.7, 10.0, 9.8, 1.9, 1.9, 9.8, 4.6, 6.9, 2.2, 9.2, 9.4, 10.7, 10.5, 13.6, 13.1, 12.8, 8.4, 1.2, 1.2, 6.2, 6.0, 7.6, 5.8, 5.9, 6.3, 6.4, 5.7, 7.0, 6.9, 5.8, 6.4, 9.6, 7.2, 14.0, 10.7, 8.9, 14.5, 15.0, 11.8, 11.0, 11.0, 12.2, 12.4, 11.7, 14.1, 12.0, 11.6, 11.7, 12.1, 3.9, 5.0, 5.0, 5.4, 5.4, 5.9, 2.2, 2.3, 2.3, 14.7, 15.0, 14.8, 14.1, 14.4, 13.4, 1.6, 1.6, 1.6, 13.0, 8.0, 1.4, 1.4, 8.5, 14.9, 14.8, 1.1, 1.1, 1.3, 13.5, 13.3, 14.9, 0.9, 0.9, 13.4, 13.3, 15.0, 14.6, 14.8, 13.6, 14.7, 14.3, 14.0, 13.8, 13.4, 14.2, 15.0, 10.1, 12.7, 13.3, 13.1, 14.5, 11.1, 13.7, 10.8], "azimuths_deg": [0.0, 2.0, 4.0, 6.0, 8.0, 10.0, 12.0, 14.0, 16.0, 18.0, 20.0, 22.0, 24.0, 26.0, 28.0, 30.0, 32.0, 34.0, 36.0, 38.0, 40.0, 42.0, 44.0, 46.0, 48.0, 50.0, 52.0, 54.0, 56.0, 58.0, 60.0, 62.0, 64.0, 66.0, 68.0, 70.0, 72.0, 74.0, 76.0, 78.0, 80.0, 82.0, 84.0, 86.0, 88.0, 90.0, 92.0, 94.0, 96.0, 98.0, 100.0, 102.0, 104.0, 106.0, 108.0, 110.0, 112.0, 114.0, 116.0, 118.0, 120.0, 122.0, 124.0, 126.0, 128.0, 130.0, 132.0, 134.0, 136.0, 138.0, 140.0, 142.0, 144.0, 146.0, 148.0, 150.0, 152.0, 154.0, 156.0, 158.0, 160.0, 162.0, 164.0, 166.0, 168.0, 170.0, 172.0, 174.0, 176.0, 178.0, 180.0, 182.0, 184.0, 186.0, 188.0, 190.0, 192.0, 194.0, 196.0, 198.0, 200.0, 202.0, 204.0, 206.0, 208.0, 210.0, 212.0, 214.0, 216.0, 218.0, 220.0, 222.0, 224.0, 226.0, 228.0, 230.0, 232.0, 234.0, 236.0, 238.0, 240.0, 242.0, 244.0, 246.0, 248.0, 250.0, 252.0, 254.0, 256.0, 258.0, 260.0, 262.0, 264.0, 266.0, 268.0, 270.0, 272.0, 274.0, 276.0, 278.0, 280.0, 282.0, 284.0, 286.0, 288.0, 290.0, 292.0, 294.0, 296.0, 298.0, 300.0, 302.0, 304.0, 306.0, 308.0, 310.0, 312.0, 314.0, 316.0, 318.0, 320.0, 322.0, 324.0, 326.0, 328.0, 330.0, 332.0, 334.0, 336.0, 338.0, 340.0, 342.0, 344.0, 346.0, 348.0, 350.0, 352.0, 354.0, 356.0, 358.0]}}, {"type": "Feature", "geometry": {"type": "Point", "coordinates": [12.619860820404721, 48.207638777777774]}, "properties": {"rank": 13, "elevation_m": 442.5, "combined_score": 0.7258, "terrain_score": 0.7258, "mean_visible_km": 3.08, "max_visible_km": 15.0, "coverage_fraction": 0.283, "horizon_km": [0.1, 0.1, 0.1, 0.1, 0.1, 0.1, 0.1, 0.1, 0.1, 0.1, 0.1, 0.1, 0.1, 0.1, 0.1, 0.1, 0.1, 0.1, 0.1, 0.1, 0.1, 0.1, 0.1, 14.6, 11.5, 11.2, 11.2, 12.3, 15.0, 14.5, 14.8, 14.6, 7.5, 7.9, 8.5, 1.0, 1.0, 1.1, 1.1, 1.4, 1.0, 1.0, 1.3, 1.1, 1.1, 1.1, 1.1, 6.6, 1.1, 1.1, 1.2, 1.2, 14.9, 1.6, 1.6, 12.4, 11.9, 11.4, 11.4, 11.2, 2.2, 2.2, 1.0, 1.0, 1.0, 1.0, 1.0, 1.0, 9.4, 9.3, 6.5, 8.3, 8.9, 8.4, 8.5, 8.6, 8.5, 8.4, 8.4, 8.5, 8.8, 8.0, 8.0, 9.4, 8.5, 6.3, 8.9, 8.7, 8.5, 8.8, 8.9, 9.6, 9.5, 9.3, 9.8, 0.4, 0.4, 0.4, 0.4, 0.4, 0.4, 0.4, 0.4, 0.4, 0.4, 0.3, 0.3, 0.5, 9.2, 14.3, 6.5, 15.0, 6.9, 0.4, 1.2, 0.1, 0.1, 0.1, 0.1, 0.1, 0.1, 0.1, 0.1, 0.1, 0.1, 0.1, 0.1, 0.1, 0.1, 0.1, 0.1, 0.1, 0.1, 0.1, 0.1, 0.1, 0.1, 0.1, 0.1, 0.1, 0.1, 0.1, 0.1, 0.1, 0.1, 0.1, 0.1, 0.1, 0.1, 0.1, 0.1, 0.1, 0.1, 0.1, 0.1, 0.1, 0.1, 0.1, 0.1, 0.1, 0.1, 0.1, 0.1, 0.1, 0.1, 0.1, 0.1, 0.1, 0.1, 0.1, 0.1, 0.1, 0.1, 0.1, 0.1, 0.1, 0.1, 0.1, 0.1, 0.1], "azimuths_deg": [0.0, 2.0, 4.0, 6.0, 8.0, 10.0, 12.0, 14.0, 16.0, 18.0, 20.0, 22.0, 24.0, 26.0, 28.0, 30.0, 32.0, 34.0, 36.0, 38.0, 40.0, 42.0, 44.0, 46.0, 48.0, 50.0, 52.0, 54.0, 56.0, 58.0, 60.0, 62.0, 64.0, 66.0, 68.0, 70.0, 72.0, 74.0, 76.0, 78.0, 80.0, 82.0, 84.0, 86.0, 88.0, 90.0, 92.0, 94.0, 96.0, 98.0, 100.0, 102.0, 104.0, 106.0, 108.0, 110.0, 112.0, 114.0, 116.0, 118.0, 120.0, 122.0, 124.0, 126.0, 128.0, 130.0, 132.0, 134.0, 136.0, 138.0, 140.0, 142.0, 144.0, 146.0, 148.0, 150.0, 152.0, 154.0, 156.0, 158.0, 160.0, 162.0, 164.0, 166.0, 168.0, 170.0, 172.0, 174.0, 176.0, 178.0, 180.0, 182.0, 184.0, 186.0, 188.0, 190.0, 192.0, 194.0, 196.0, 198.0, 200.0, 202.0, 204.0, 206.0, 208.0, 210.0, 212.0, 214.0, 216.0, 218.0, 220.0, 222.0, 224.0, 226.0, 228.0, 230.0, 232.0, 234.0, 236.0, 238.0, 240.0, 242.0, 244.0, 246.0, 248.0, 250.0, 252.0, 254.0, 256.0, 258.0, 260.0, 262.0, 264.0, 266.0, 268.0, 270.0, 272.0, 274.0, 276.0, 278.0, 280.0, 282.0, 284.0, 286.0, 288.0, 290.0, 292.0, 294.0, 296.0, 298.0, 300.0, 302.0, 304.0, 306.0, 308.0, 310.0, 312.0, 314.0, 316.0, 318.0, 320.0, 322.0, 324.0, 326.0, 328.0, 330.0, 332.0, 334.0, 336.0, 338.0, 340.0, 342.0, 344.0, 346.0, 348.0, 350.0, 352.0, 354.0, 356.0, 358.0]}}, {"type": "Feature", "geometry": {"type": "Point", "coordinates": [12.521249722596965, 48.18958322222222]}, "properties": {"rank": 14, "elevation_m": 456.0, "combined_score": 0.7185, "terrain_score": 0.7185, "mean_visible_km": 9.73, "max_visible_km": 15.0, "coverage_fraction": 0.744, "horizon_km": [11.7, 12.9, 12.4, 14.4, 13.9, 13.4, 14.4, 15.0, 14.6, 13.3, 12.0, 11.9, 11.7, 11.7, 12.1, 15.0, 13.7, 14.4, 14.7, 12.9, 14.5, 14.9, 14.8, 14.5, 14.9, 14.7, 15.0, 15.0, 3.9, 3.8, 4.0, 2.5, 4.3, 5.4, 5.2, 4.0, 5.2, 4.5, 3.9, 1.8, 3.8, 4.2, 4.2, 3.7, 3.9, 3.5, 2.9, 3.5, 3.5, 2.5, 2.5, 2.5, 11.0, 10.4, 10.3, 10.2, 13.5, 9.7, 12.6, 12.0, 12.0, 12.1, 11.1, 11.0, 10.6, 10.2, 10.2, 4.2, 4.2, 10.2, 9.5, 9.8, 9.6, 9.3, 9.3, 9.4, 6.6, 13.3, 10.4, 8.3, 8.4, 9.6, 9.7, 9.1, 9.2, 11.9, 12.0, 4.2, 4.6, 4.4, 4.0, 4.0, 4.3, 4.4, 4.4, 5.4, 4.0, 5.0, 5.2, 3.7, 3.7, 4.4, 4.4, 14.5, 4.5, 4.4, 5.0, 8.1, 8.6, 12.1, 8.5, 14.5, 15.0, 13.0, 9.1, 9.2, 14.6, 8.7, 10.3, 10.0, 9.5, 9.4, 11.9, 9.7, 9.8, 9.4, 9.5, 9.9, 3.7, 3.6, 4.1, 5.2, 14.8, 14.7, 14.2, 13.6, 15.0, 14.4, 3.5, 14.5, 15.0, 14.4, 12.9, 12.7, 12.0, 1.1, 15.0, 1.5, 1.5, 0.9, 8.1, 9.0, 8.5, 15.0, 14.5, 7.3, 14.5, 15.0, 12.7, 13.1, 13.0, 14.8, 15.0, 12.4, 13.4, 13.3, 13.8, 14.9, 14.3, 14.6, 14.8, 14.9, 14.6, 14.1, 15.0, 14.6, 14.5, 11.3, 14.4, 13.5], "azimuths_deg": [0.0, 2.0, 4.0, 6.0, 8.0, 10.0, 12.0, 14.0, 16.0, 18.0, 20.0, 22.0, 24.0, 26.0, 28.0, 30.0, 32.0, 34.0, 36.0, 38.0, 40.0, 42.0, 44.0, 46.0, 48.0, 50.0, 52.0, 54.0, 56.0, 58.0, 60.0, 62.0, 64.0, 66.0, 68.0, 70.0, 72.0, 74.0, 76.0, 78.0, 80.0, 82.0, 84.0, 86.0, 88.0, 90.0, 92.0, 94.0, 96.0, 98.0, 100.0, 102.0, 104.0, 106.0, 108.0, 110.0, 112.0, 114.0, 116.0, 118.0, 120.0, 122.0, 124.0, 126.0, 128.0, 130.0, 132.0, 134.0, 136.0, 138.0, 140.0, 142.0, 144.0, 146.0, 148.0, 150.0, 152.0, 154.0, 156.0, 158.0, 160.0, 162.0, 164.0, 166.0, 168.0, 170.0, 172.0, 174.0, 176.0, 178.0, 180.0, 182.0, 184.0, 186.0, 188.0, 190.0, 192.0, 194.0, 196.0, 198.0, 200.0, 202.0, 204.0, 206.0, 208.0, 210.0, 212.0, 214.0, 216.0, 218.0, 220.0, 222.0, 224.0, 226.0, 228.0, 230.0, 232.0, 234.0, 236.0, 238.0, 240.0, 242.0, 244.0, 246.0, 248.0, 250.0, 252.0, 254.0, 256.0, 258.0, 260.0, 262.0, 264.0, 266.0, 268.0, 270.0, 272.0, 274.0, 276.0, 278.0, 280.0, 282.0, 284.0, 286.0, 288.0, 290.0, 292.0, 294.0, 296.0, 298.0, 300.0, 302.0, 304.0, 306.0, 308.0, 310.0, 312.0, 314.0, 316.0, 318.0, 320.0, 322.0, 324.0, 326.0, 328.0, 330.0, 332.0, 334.0, 336.0, 338.0, 340.0, 342.0, 344.0, 346.0, 348.0, 350.0, 352.0, 354.0, 356.0, 358.0]}}, {"type": "Feature", "geometry": {"type": "Point", "coordinates": [12.553194162731872, 48.204861]}, "properties": {"rank": 15, "elevation_m": 448.5, "combined_score": 0.7088, "terrain_score": 0.7088, "mean_visible_km": 6.38, "max_visible_km": 15.0, "coverage_fraction": 0.511, "horizon_km": [0.1, 0.1, 14.6, 13.9, 12.1, 9.7, 15.0, 15.0, 9.3, 15.0, 13.5, 14.7, 14.1, 14.9, 14.1, 14.0, 14.4, 14.6, 11.6, 10.0, 12.2, 12.8, 11.7, 1.0, 1.0, 11.9, 12.2, 0.9, 1.0, 1.0, 1.0, 1.0, 1.0, 0.9, 0.9, 0.9, 0.9, 0.9, 0.8, 0.8, 1.5, 1.5, 1.5, 1.4, 1.6, 2.5, 2.6, 2.6, 1.9, 2.0, 2.0, 2.0, 1.1, 1.1, 6.5, 1.7, 1.7, 1.5, 1.6, 9.3, 13.1, 2.1, 2.2, 8.9, 11.6, 11.3, 11.7, 8.5, 11.3, 10.7, 10.4, 10.4, 10.3, 10.1, 9.9, 10.0, 2.3, 10.2, 9.8, 10.2, 2.4, 9.8, 9.9, 10.2, 4.7, 4.8, 4.7, 4.8, 2.2, 2.1, 2.2, 13.4, 14.4, 10.7, 9.8, 2.1, 14.8, 12.0, 12.3, 6.4, 6.5, 6.2, 6.9, 7.7, 7.5, 7.6, 10.8, 6.3, 6.9, 7.1, 7.8, 14.9, 11.4, 14.8, 14.5, 12.1, 12.2, 11.6, 13.3, 13.0, 12.3, 14.7, 12.6, 12.2, 12.3, 12.9, 5.6, 3.9, 5.8, 6.0, 2.8, 2.8, 2.8, 1.9, 1.9, 15.0, 2.1, 14.4, 15.0, 14.1, 13.3, 1.4, 1.2, 1.2, 1.2, 7.9, 8.9, 8.5, 14.9, 15.0, 0.1, 0.1, 0.1, 0.1, 0.1, 0.1, 0.1, 0.1, 0.1, 0.1, 0.1, 0.1, 0.1, 0.1, 0.1, 0.1, 0.1, 0.1, 0.1, 0.1, 0.1, 0.1, 0.1, 0.1, 0.1, 0.1, 0.1, 0.1, 0.1, 0.1], "azimuths_deg": [0.0, 2.0, 4.0, 6.0, 8.0, 10.0, 12.0, 14.0, 16.0, 18.0, 20.0, 22.0, 24.0, 26.0, 28.0, 30.0, 32.0, 34.0, 36.0, 38.0, 40.0, 42.0, 44.0, 46.0, 48.0, 50.0, 52.0, 54.0, 56.0, 58.0, 60.0, 62.0, 64.0, 66.0, 68.0, 70.0, 72.0, 74.0, 76.0, 78.0, 80.0, 82.0, 84.0, 86.0, 88.0, 90.0, 92.0, 94.0, 96.0, 98.0, 100.0, 102.0, 104.0, 106.0, 108.0, 110.0, 112.0, 114.0, 116.0, 118.0, 120.0, 122.0, 124.0, 126.0, 128.0, 130.0, 132.0, 134.0, 136.0, 138.0, 140.0, 142.0, 144.0, 146.0, 148.0, 150.0, 152.0, 154.0, 156.0, 158.0, 160.0, 162.0, 164.0, 166.0, 168.0, 170.0, 172.0, 174.0, 176.0, 178.0, 180.0, 182.0, 184.0, 186.0, 188.0, 190.0, 192.0, 194.0, 196.0, 198.0, 200.0, 202.0, 204.0, 206.0, 208.0, 210.0, 212.0, 214.0, 216.0, 218.0, 220.0, 222.0, 224.0, 226.0, 228.0, 230.0, 232.0, 234.0, 236.0, 238.0, 240.0, 242.0, 244.0, 246.0, 248.0, 250.0, 252.0, 254.0, 256.0, 258.0, 260.0, 262.0, 264.0, 266.0, 268.0, 270.0, 272.0, 274.0, 276.0, 278.0, 280.0, 282.0, 284.0, 286.0, 288.0, 290.0, 292.0, 294.0, 296.0, 298.0, 300.0, 302.0, 304.0, 306.0, 308.0, 310.0, 312.0, 314.0, 316.0, 318.0, 320.0, 322.0, 324.0, 326.0, 328.0, 330.0, 332.0, 334.0, 336.0, 338.0, 340.0, 342.0, 344.0, 346.0, 348.0, 350.0, 352.0, 354.0, 356.0, 358.0]}}, {"type": "Feature", "geometry": {"type": "Point", "coordinates": [12.496249725969646, 48.19097211111111]}, "properties": {"rank": 16, "elevation_m": 460.8, "combined_score": 0.708, "terrain_score": 0.708, "mean_visible_km": 9.9, "max_visible_km": 15.0, "coverage_fraction": 0.794, "horizon_km": [11.1, 14.3, 11.1, 14.2, 11.6, 12.9, 12.6, 14.2, 14.1, 13.4, 11.3, 14.9, 14.7, 13.8, 12.6, 12.6, 12.5, 12.5, 13.0, 14.6, 15.0, 14.4, 15.0, 14.6, 14.1, 14.6, 15.0, 15.0, 1.8, 3.6, 1.8, 4.9, 1.7, 5.4, 5.6, 5.4, 0.8, 0.8, 0.8, 7.0, 6.3, 9.0, 5.6, 6.0, 9.4, 5.7, 5.3, 10.6, 10.3, 4.3, 10.0, 13.2, 12.2, 12.1, 12.0, 14.7, 11.3, 14.0, 14.3, 13.8, 12.7, 12.5, 12.2, 11.7, 11.8, 11.4, 11.1, 11.4, 11.0, 10.5, 10.9, 10.4, 13.1, 6.7, 9.3, 9.4, 4.9, 4.7, 4.7, 4.6, 5.0, 4.4, 4.8, 13.2, 5.6, 3.7, 5.4, 3.9, 3.9, 4.1, 4.1, 4.1, 4.1, 4.3, 4.6, 4.5, 7.7, 13.8, 6.8, 14.3, 12.9, 7.4, 2.9, 5.8, 4.5, 4.3, 4.5, 14.8, 15.0, 14.5, 8.3, 8.0, 14.2, 13.4, 12.6, 8.6, 8.0, 7.9, 8.0, 9.4, 8.1, 8.2, 7.7, 7.8, 7.8, 8.4, 4.0, 4.2, 3.4, 14.9, 1.1, 13.0, 13.0, 12.9, 11.9, 13.8, 13.9, 1.6, 1.6, 1.6, 1.6, 12.5, 12.2, 11.1, 10.9, 10.3, 9.7, 13.6, 14.5, 14.6, 9.9, 10.0, 10.6, 7.2, 14.6, 13.4, 13.8, 12.4, 13.8, 13.9, 14.9, 11.4, 11.8, 11.8, 14.9, 14.4, 14.4, 14.4, 12.4, 12.0, 14.0, 13.6, 13.3, 14.4, 14.2, 14.0, 15.0, 13.6, 14.4, 11.5], "azimuths_deg": [0.0, 2.0, 4.0, 6.0, 8.0, 10.0, 12.0, 14.0, 16.0, 18.0, 20.0, 22.0, 24.0, 26.0, 28.0, 30.0, 32.0, 34.0, 36.0, 38.0, 40.0, 42.0, 44.0, 46.0, 48.0, 50.0, 52.0, 54.0, 56.0, 58.0, 60.0, 62.0, 64.0, 66.0, 68.0, 70.0, 72.0, 74.0, 76.0, 78.0, 80.0, 82.0, 84.0, 86.0, 88.0, 90.0, 92.0, 94.0, 96.0, 98.0, 100.0, 102.0, 104.0, 106.0, 108.0, 110.0, 112.0, 114.0, 116.0, 118.0, 120.0, 122.0, 124.0, 126.0, 128.0, 130.0, 132.0, 134.0, 136.0, 138.0, 140.0, 142.0, 144.0, 146.0, 148.0, 150.0, 152.0, 154.0, 156.0, 158.0, 160.0, 162.0, 164.0, 166.0, 168.0, 170.0, 172.0, 174.0, 176.0, 178.0, 180.0, 182.0, 184.0, 186.0, 188.0, 190.0, 192.0, 194.0, 196.0, 198.0, 200.0, 202.0, 204.0, 206.0, 208.0, 210.0, 212.0, 214.0, 216.0, 218.0, 220.0, 222.0, 224.0, 226.0, 228.0, 230.0, 232.0, 234.0, 236.0, 238.0, 240.0, 242.0, 244.0, 246.0, 248.0, 250.0, 252.0, 254.0, 256.0, 258.0, 260.0, 262.0, 264.0, 266.0, 268.0, 270.0, 272.0, 274.0, 276.0, 278.0, 280.0, 282.0, 284.0, 286.0, 288.0, 290.0, 292.0, 294.0, 296.0, 298.0, 300.0, 302.0, 304.0, 306.0, 308.0, 310.0, 312.0, 314.0, 316.0, 318.0, 320.0, 322.0, 324.0, 326.0, 328.0, 330.0, 332.0, 334.0, 336.0, 338.0, 340.0, 342.0, 344.0, 346.0, 348.0, 350.0, 352.0, 354.0, 356.0, 358.0]}}, {"type": "Feature", "geometry": {"type": "Point", "coordinates": [12.6573608153457, 48.20624988888889]}, "properties": {"rank": 17, "elevation_m": 441.8, "combined_score": 0.7064, "terrain_score": 0.7064, "mean_visible_km": 6.26, "max_visible_km": 15.0, "coverage_fraction": 0.572, "horizon_km": [12.1, 8.2, 8.3, 8.2, 7.7, 7.6, 8.1, 7.6, 8.1, 7.1, 7.7, 13.3, 11.8, 12.8, 13.2, 14.2, 14.5, 9.3, 9.7, 9.4, 13.4, 13.4, 13.6, 13.6, 14.6, 13.9, 14.3, 11.9, 14.4, 14.9, 0.7, 0.6, 0.6, 0.6, 0.6, 0.6, 0.6, 0.6, 0.6, 1.0, 0.6, 0.6, 3.5, 3.5, 4.0, 3.9, 3.9, 3.9, 3.9, 3.9, 4.1, 3.9, 3.8, 12.2, 11.6, 9.4, 9.4, 9.5, 9.6, 9.3, 8.7, 9.0, 8.7, 8.7, 14.8, 14.9, 14.9, 15.0, 15.0, 14.8, 13.7, 12.9, 8.5, 9.6, 11.8, 7.7, 7.6, 7.1, 7.0, 7.6, 6.8, 6.9, 7.1, 7.3, 7.4, 7.5, 4.5, 7.5, 7.5, 7.8, 4.9, 5.0, 8.1, 5.4, 8.3, 8.5, 5.9, 6.2, 6.3, 6.6, 6.7, 9.8, 10.5, 11.0, 11.3, 11.2, 1.7, 1.7, 12.1, 13.7, 13.1, 2.4, 1.0, 0.1, 0.1, 6.2, 6.3, 8.5, 8.5, 0.7, 0.7, 0.1, 0.1, 0.1, 0.1, 0.1, 0.1, 1.2, 2.1, 0.1, 0.1, 0.1, 0.1, 0.1, 0.1, 0.1, 0.1, 0.1, 0.1, 0.1, 0.1, 0.1, 0.1, 0.1, 0.1, 0.1, 0.1, 0.1, 0.1, 0.1, 0.1, 0.1, 0.1, 0.1, 0.1, 0.1, 0.1, 0.1, 0.1, 0.1, 0.1, 0.1, 0.1, 0.1, 0.1, 10.2, 10.0, 14.9, 15.0, 13.0, 14.8, 10.6, 15.0, 8.0, 7.9, 7.8, 7.9, 10.9, 12.0, 11.9], "azimuths_deg": [0.0, 2.0, 4.0, 6.0, 8.0, 10.0, 12.0, 14.0, 16.0, 18.0, 20.0, 22.0, 24.0, 26.0, 28.0, 30.0, 32.0, 34.0, 36.0, 38.0, 40.0, 42.0, 44.0, 46.0, 48.0, 50.0, 52.0, 54.0, 56.0, 58.0, 60.0, 62.0, 64.0, 66.0, 68.0, 70.0, 72.0, 74.0, 76.0, 78.0, 80.0, 82.0, 84.0, 86.0, 88.0, 90.0, 92.0, 94.0, 96.0, 98.0, 100.0, 102.0, 104.0, 106.0, 108.0, 110.0, 112.0, 114.0, 116.0, 118.0, 120.0, 122.0, 124.0, 126.0, 128.0, 130.0, 132.0, 134.0, 136.0, 138.0, 140.0, 142.0, 144.0, 146.0, 148.0, 150.0, 152.0, 154.0, 156.0, 158.0, 160.0, 162.0, 164.0, 166.0, 168.0, 170.0, 172.0, 174.0, 176.0, 178.0, 180.0, 182.0, 184.0, 186.0, 188.0, 190.0, 192.0, 194.0, 196.0, 198.0, 200.0, 202.0, 204.0, 206.0, 208.0, 210.0, 212.0, 214.0, 216.0, 218.0, 220.0, 222.0, 224.0, 226.0, 228.0, 230.0, 232.0, 234.0, 236.0, 238.0, 240.0, 242.0, 244.0, 246.0, 248.0, 250.0, 252.0, 254.0, 256.0, 258.0, 260.0, 262.0, 264.0, 266.0, 268.0, 270.0, 272.0, 274.0, 276.0, 278.0, 280.0, 282.0, 284.0, 286.0, 288.0, 290.0, 292.0, 294.0, 296.0, 298.0, 300.0, 302.0, 304.0, 306.0, 308.0, 310.0, 312.0, 314.0, 316.0, 318.0, 320.0, 322.0, 324.0, 326.0, 328.0, 330.0, 332.0, 334.0, 336.0, 338.0, 340.0, 342.0, 344.0, 346.0, 348.0, 350.0, 352.0, 354.0, 356.0, 358.0]}}, {"type": "Feature", "geometry": {"type": "Point", "coordinates": [12.369860854131534, 48.26458322222222]}, "properties": {"rank": 18, "elevation_m": 450.5, "combined_score": 0.6751, "terrain_score": 0.6751, "mean_visible_km": 2.99, "max_visible_km": 15.0, "coverage_fraction": 0.25, "horizon_km": [0.1, 0.1, 0.1, 0.1, 0.1, 0.1, 0.1, 0.1, 0.1, 0.1, 0.5, 0.5, 0.5, 0.5, 0.5, 0.5, 0.5, 0.5, 0.5, 0.5, 0.5, 7.2, 8.0, 3.1, 3.1, 3.1, 6.1, 5.2, 2.2, 5.7, 3.1, 3.1, 3.1, 3.1, 2.4, 2.5, 2.5, 2.3, 2.2, 2.2, 14.9, 15.0, 13.8, 13.1, 14.7, 15.0, 0.3, 0.4, 0.4, 0.4, 0.4, 0.3, 0.3, 0.3, 0.3, 0.3, 0.3, 0.2, 0.2, 0.2, 0.2, 0.2, 0.2, 0.2, 0.2, 0.2, 0.2, 0.2, 0.2, 0.2, 0.2, 0.2, 0.2, 0.2, 0.2, 0.2, 0.2, 0.2, 0.2, 0.2, 0.2, 0.2, 0.2, 0.2, 0.2, 0.2, 0.2, 4.5, 4.6, 4.6, 4.6, 4.7, 4.7, 4.8, 4.8, 4.9, 4.9, 4.9, 5.0, 5.4, 5.5, 5.6, 5.7, 5.8, 6.0, 6.8, 6.7, 6.9, 7.0, 8.1, 8.0, 7.6, 7.1, 10.6, 10.8, 11.2, 11.4, 8.7, 9.8, 10.1, 12.5, 4.7, 4.1, 11.8, 10.0, 9.5, 14.9, 14.9, 12.9, 14.2, 12.8, 5.8, 5.5, 5.0, 0.1, 0.1, 0.1, 0.1, 0.1, 0.1, 0.1, 0.1, 0.1, 0.1, 0.1, 0.1, 0.1, 0.1, 0.1, 0.1, 0.1, 0.1, 0.1, 0.1, 0.1, 0.1, 0.1, 0.1, 0.1, 0.1, 0.1, 0.1, 0.1, 0.1, 0.1, 0.1, 0.1, 0.1, 0.1, 0.1, 0.1, 0.1, 0.1, 0.1, 0.1, 0.1, 0.1, 0.1, 0.1, 0.1], "azimuths_deg": [0.0, 2.0, 4.0, 6.0, 8.0, 10.0, 12.0, 14.0, 16.0, 18.0, 20.0, 22.0, 24.0, 26.0, 28.0, 30.0, 32.0, 34.0, 36.0, 38.0, 40.0, 42.0, 44.0, 46.0, 48.0, 50.0, 52.0, 54.0, 56.0, 58.0, 60.0, 62.0, 64.0, 66.0, 68.0, 70.0, 72.0, 74.0, 76.0, 78.0, 80.0, 82.0, 84.0, 86.0, 88.0, 90.0, 92.0, 94.0, 96.0, 98.0, 100.0, 102.0, 104.0, 106.0, 108.0, 110.0, 112.0, 114.0, 116.0, 118.0, 120.0, 122.0, 124.0, 126.0, 128.0, 130.0, 132.0, 134.0, 136.0, 138.0, 140.0, 142.0, 144.0, 146.0, 148.0, 150.0, 152.0, 154.0, 156.0, 158.0, 160.0, 162.0, 164.0, 166.0, 168.0, 170.0, 172.0, 174.0, 176.0, 178.0, 180.0, 182.0, 184.0, 186.0, 188.0, 190.0, 192.0, 194.0, 196.0, 198.0, 200.0, 202.0, 204.0, 206.0, 208.0, 210.0, 212.0, 214.0, 216.0, 218.0, 220.0, 222.0, 224.0, 226.0, 228.0, 230.0, 232.0, 234.0, 236.0, 238.0, 240.0, 242.0, 244.0, 246.0, 248.0, 250.0, 252.0, 254.0, 256.0, 258.0, 260.0, 262.0, 264.0, 266.0, 268.0, 270.0, 272.0, 274.0, 276.0, 278.0, 280.0, 282.0, 284.0, 286.0, 288.0, 290.0, 292.0, 294.0, 296.0, 298.0, 300.0, 302.0, 304.0, 306.0, 308.0, 310.0, 312.0, 314.0, 316.0, 318.0, 320.0, 322.0, 324.0, 326.0, 328.0, 330.0, 332.0, 334.0, 336.0, 338.0, 340.0, 342.0, 344.0, 346.0, 348.0, 350.0, 352.0, 354.0, 356.0, 358.0]}}, {"type": "Feature", "geometry": {"type": "Point", "coordinates": [12.55458305143339, 48.210416555555554]}, "properties": {"rank": 19, "elevation_m": 442.5, "combined_score": 0.6739, "terrain_score": 0.6739, "mean_visible_km": 5.33, "max_visible_km": 15.0, "coverage_fraction": 0.428, "horizon_km": [0.1, 0.1, 0.1, 0.1, 0.1, 0.1, 0.1, 0.1, 0.1, 0.1, 12.4, 13.0, 12.4, 12.5, 14.2, 13.3, 0.2, 13.8, 14.6, 11.1, 9.7, 11.7, 12.3, 11.2, 11.5, 11.4, 11.4, 11.8, 11.8, 11.7, 14.6, 14.9, 14.9, 8.7, 9.2, 13.4, 10.7, 11.3, 13.5, 12.5, 0.6, 0.6, 0.6, 0.6, 0.6, 0.6, 0.9, 0.9, 0.9, 0.9, 0.8, 0.8, 0.8, 0.8, 0.8, 0.8, 0.8, 0.8, 0.8, 0.8, 0.7, 0.8, 0.8, 0.8, 0.8, 11.9, 1.3, 1.3, 2.5, 2.4, 11.5, 2.1, 10.8, 10.6, 5.1, 10.4, 2.4, 10.5, 10.8, 10.3, 2.8, 10.6, 10.4, 3.0, 10.7, 0.4, 5.4, 5.3, 0.3, 0.3, 0.3, 0.3, 0.3, 0.3, 0.3, 0.3, 0.3, 0.3, 0.3, 0.3, 0.4, 0.4, 0.4, 0.4, 0.4, 0.4, 0.4, 0.4, 0.4, 1.1, 1.1, 11.9, 7.4, 8.9, 12.6, 12.7, 12.1, 13.7, 13.5, 12.7, 14.2, 13.0, 12.5, 12.7, 3.1, 6.4, 6.3, 2.3, 1.3, 1.3, 1.6, 1.6, 1.7, 1.6, 15.0, 14.3, 14.8, 15.0, 14.1, 14.2, 14.9, 13.2, 6.9, 8.5, 8.8, 8.3, 8.0, 14.6, 14.8, 8.7, 13.3, 13.5, 13.4, 0.1, 0.1, 0.1, 0.1, 0.1, 0.1, 0.1, 0.1, 0.1, 0.1, 0.1, 0.1, 0.1, 0.1, 0.1, 0.1, 0.1, 0.1, 0.1, 0.1, 0.1, 0.1, 0.1, 0.1, 0.1, 0.1, 0.1], "azimuths_deg": [0.0, 2.0, 4.0, 6.0, 8.0, 10.0, 12.0, 14.0, 16.0, 18.0, 20.0, 22.0, 24.0, 26.0, 28.0, 30.0, 32.0, 34.0, 36.0, 38.0, 40.0, 42.0, 44.0, 46.0, 48.0, 50.0, 52.0, 54.0, 56.0, 58.0, 60.0, 62.0, 64.0, 66.0, 68.0, 70.0, 72.0, 74.0, 76.0, 78.0, 80.0, 82.0, 84.0, 86.0, 88.0, 90.0, 92.0, 94.0, 96.0, 98.0, 100.0, 102.0, 104.0, 106.0, 108.0, 110.0, 112.0, 114.0, 116.0, 118.0, 120.0, 122.0, 124.0, 126.0, 128.0, 130.0, 132.0, 134.0, 136.0, 138.0, 140.0, 142.0, 144.0, 146.0, 148.0, 150.0, 152.0, 154.0, 156.0, 158.0, 160.0, 162.0, 164.0, 166.0, 168.0, 170.0, 172.0, 174.0, 176.0, 178.0, 180.0, 182.0, 184.0, 186.0, 188.0, 190.0, 192.0, 194.0, 196.0, 198.0, 200.0, 202.0, 204.0, 206.0, 208.0, 210.0, 212.0, 214.0, 216.0, 218.0, 220.0, 222.0, 224.0, 226.0, 228.0, 230.0, 232.0, 234.0, 236.0, 238.0, 240.0, 242.0, 244.0, 246.0, 248.0, 250.0, 252.0, 254.0, 256.0, 258.0, 260.0, 262.0, 264.0, 266.0, 268.0, 270.0, 272.0, 274.0, 276.0, 278.0, 280.0, 282.0, 284.0, 286.0, 288.0, 290.0, 292.0, 294.0, 296.0, 298.0, 300.0, 302.0, 304.0, 306.0, 308.0, 310.0, 312.0, 314.0, 316.0, 318.0, 320.0, 322.0, 324.0, 326.0, 328.0, 330.0, 332.0, 334.0, 336.0, 338.0, 340.0, 342.0, 344.0, 346.0, 348.0, 350.0, 352.0, 354.0, 356.0, 358.0]}}, {"type": "Feature", "geometry": {"type": "Point", "coordinates": [12.646249705733558, 48.19652766666667]}, "properties": {"rank": 20, "elevation_m": 447.0, "combined_score": 0.6728, "terrain_score": 0.6728, "mean_visible_km": 8.18, "max_visible_km": 15.0, "coverage_fraction": 0.739, "horizon_km": [13.0, 13.0, 13.2, 10.3, 9.3, 9.4, 8.9, 8.9, 9.1, 9.3, 9.5, 8.3, 13.2, 14.6, 14.3, 14.8, 14.8, 10.6, 14.2, 10.8, 14.7, 15.0, 14.8, 14.8, 14.8, 14.3, 13.9, 13.6, 7.3, 8.1, 7.5, 6.7, 7.0, 6.1, 5.1, 6.7, 4.6, 5.4, 5.2, 4.9, 4.8, 5.3, 4.6, 4.9, 4.5, 4.5, 4.5, 5.6, 0.8, 0.8, 0.8, 12.1, 9.9, 10.2, 10.0, 9.6, 9.1, 9.2, 8.8, 11.7, 11.0, 14.9, 15.0, 14.7, 15.0, 15.0, 15.0, 13.9, 14.0, 12.8, 7.1, 7.2, 6.6, 6.4, 6.5, 6.2, 6.8, 6.4, 3.7, 3.7, 6.6, 6.6, 6.5, 6.6, 6.6, 6.8, 4.0, 4.0, 4.3, 7.0, 7.0, 7.2, 4.9, 4.8, 5.0, 5.1, 7.6, 5.3, 8.6, 8.6, 0.4, 0.4, 0.4, 10.0, 10.0, 15.0, 14.8, 14.6, 0.5, 0.5, 0.5, 0.5, 8.6, 5.0, 1.0, 1.1, 1.1, 4.9, 5.0, 7.2, 2.7, 2.8, 10.9, 12.0, 11.3, 14.8, 14.0, 13.8, 14.5, 6.3, 6.9, 5.8, 5.7, 5.1, 5.1, 5.6, 5.5, 5.0, 4.9, 5.0, 4.4, 6.2, 6.1, 5.0, 4.6, 2.3, 2.3, 1.4, 1.3, 1.3, 1.3, 2.4, 2.4, 2.3, 13.1, 0.6, 15.0, 14.5, 14.5, 14.6, 14.5, 14.9, 14.4, 13.4, 12.0, 0.9, 0.9, 0.9, 10.8, 13.9, 11.2, 10.1, 15.0, 12.1, 13.3, 15.0, 13.7, 11.1, 8.8, 13.1], "azimuths_deg": [0.0, 2.0, 4.0, 6.0, 8.0, 10.0, 12.0, 14.0, 16.0, 18.0, 20.0, 22.0, 24.0, 26.0, 28.0, 30.0, 32.0, 34.0, 36.0, 38.0, 40.0, 42.0, 44.0, 46.0, 48.0, 50.0, 52.0, 54.0, 56.0, 58.0, 60.0, 62.0, 64.0, 66.0, 68.0, 70.0, 72.0, 74.0, 76.0, 78.0, 80.0, 82.0, 84.0, 86.0, 88.0, 90.0, 92.0, 94.0, 96.0, 98.0, 100.0, 102.0, 104.0, 106.0, 108.0, 110.0, 112.0, 114.0, 116.0, 118.0, 120.0, 122.0, 124.0, 126.0, 128.0, 130.0, 132.0, 134.0, 136.0, 138.0, 140.0, 142.0, 144.0, 146.0, 148.0, 150.0, 152.0, 154.0, 156.0, 158.0, 160.0, 162.0, 164.0, 166.0, 168.0, 170.0, 172.0, 174.0, 176.0, 178.0, 180.0, 182.0, 184.0, 186.0, 188.0, 190.0, 192.0, 194.0, 196.0, 198.0, 200.0, 202.0, 204.0, 206.0, 208.0, 210.0, 212.0, 214.0, 216.0, 218.0, 220.0, 222.0, 224.0, 226.0, 228.0, 230.0, 232.0, 234.0, 236.0, 238.0, 240.0, 242.0, 244.0, 246.0, 248.0, 250.0, 252.0, 254.0, 256.0, 258.0, 260.0, 262.0, 264.0, 266.0, 268.0, 270.0, 272.0, 274.0, 276.0, 278.0, 280.0, 282.0, 284.0, 286.0, 288.0, 290.0, 292.0, 294.0, 296.0, 298.0, 300.0, 302.0, 304.0, 306.0, 308.0, 310.0, 312.0, 314.0, 316.0, 318.0, 320.0, 322.0, 324.0, 326.0, 328.0, 330.0, 332.0, 334.0, 336.0, 338.0, 340.0, 342.0, 344.0, 346.0, 348.0, 350.0, 352.0, 354.0, 356.0, 358.0]}}, {"type": "Feature", "geometry": {"type": "Point", "coordinates": [12.503194169477235, 48.19374988888889]}, "properties": {"rank": 21, "elevation_m": 453.5, "combined_score": 0.6714, "terrain_score": 0.6714, "mean_visible_km": 2.6, "max_visible_km": 14.9, "coverage_fraction": 0.178, "horizon_km": [0.1, 0.1, 0.1, 0.1, 0.1, 0.1, 0.1, 0.1, 0.1, 0.1, 0.1, 0.1, 0.1, 12.1, 12.7, 11.9, 11.9, 12.3, 14.9, 13.2, 14.8, 14.9, 14.8, 14.7, 13.5, 1.2, 1.2, 1.2, 1.2, 1.2, 1.2, 1.1, 1.1, 1.1, 1.1, 4.9, 5.0, 5.4, 0.3, 0.3, 0.3, 0.3, 0.3, 0.5, 0.5, 5.5, 0.5, 0.5, 0.3, 0.3, 0.3, 0.3, 0.3, 0.3, 0.3, 0.3, 0.3, 0.3, 0.3, 0.3, 0.3, 12.8, 0.4, 0.4, 11.5, 11.5, 11.2, 11.4, 10.8, 11.0, 10.9, 10.8, 10.7, 0.6, 0.6, 0.6, 0.6, 0.6, 0.6, 0.6, 0.6, 4.8, 4.8, 4.6, 4.8, 4.7, 4.8, 5.8, 5.8, 4.0, 4.2, 4.4, 4.5, 4.5, 4.5, 4.5, 5.0, 4.9, 5.1, 14.5, 14.5, 1.0, 1.3, 1.4, 3.5, 3.4, 5.2, 4.9, 0.4, 0.4, 0.4, 0.4, 0.4, 0.4, 0.5, 0.3, 0.3, 0.3, 0.3, 0.3, 0.3, 0.3, 0.3, 0.3, 0.4, 0.4, 0.4, 0.1, 0.1, 0.1, 0.1, 0.1, 0.1, 0.1, 0.1, 0.1, 0.1, 0.1, 0.1, 0.1, 0.1, 0.1, 0.1, 0.1, 0.1, 0.1, 0.1, 0.1, 0.1, 0.1, 0.1, 0.1, 0.1, 0.1, 0.1, 0.1, 0.1, 0.1, 0.1, 0.1, 0.1, 0.1, 0.1, 0.1, 0.1, 0.1, 0.1, 0.1, 0.1, 0.1, 0.1, 0.1, 0.1, 0.1, 0.1, 0.1, 0.1, 0.1, 0.1, 0.1], "azimuths_deg": [0.0, 2.0, 4.0, 6.0, 8.0, 10.0, 12.0, 14.0, 16.0, 18.0, 20.0, 22.0, 24.0, 26.0, 28.0, 30.0, 32.0, 34.0, 36.0, 38.0, 40.0, 42.0, 44.0, 46.0, 48.0, 50.0, 52.0, 54.0, 56.0, 58.0, 60.0, 62.0, 64.0, 66.0, 68.0, 70.0, 72.0, 74.0, 76.0, 78.0, 80.0, 82.0, 84.0, 86.0, 88.0, 90.0, 92.0, 94.0, 96.0, 98.0, 100.0, 102.0, 104.0, 106.0, 108.0, 110.0, 112.0, 114.0, 116.0, 118.0, 120.0, 122.0, 124.0, 126.0, 128.0, 130.0, 132.0, 134.0, 136.0, 138.0, 140.0, 142.0, 144.0, 146.0, 148.0, 150.0, 152.0, 154.0, 156.0, 158.0, 160.0, 162.0, 164.0, 166.0, 168.0, 170.0, 172.0, 174.0, 176.0, 178.0, 180.0, 182.0, 184.0, 186.0, 188.0, 190.0, 192.0, 194.0, 196.0, 198.0, 200.0, 202.0, 204.0, 206.0, 208.0, 210.0, 212.0, 214.0, 216.0, 218.0, 220.0, 222.0, 224.0, 226.0, 228.0, 230.0, 232.0, 234.0, 236.0, 238.0, 240.0, 242.0, 244.0, 246.0, 248.0, 250.0, 252.0, 254.0, 256.0, 258.0, 260.0, 262.0, 264.0, 266.0, 268.0, 270.0, 272.0, 274.0, 276.0, 278.0, 280.0, 282.0, 284.0, 286.0, 288.0, 290.0, 292.0, 294.0, 296.0, 298.0, 300.0, 302.0, 304.0, 306.0, 308.0, 310.0, 312.0, 314.0, 316.0, 318.0, 320.0, 322.0, 324.0, 326.0, 328.0, 330.0, 332.0, 334.0, 336.0, 338.0, 340.0, 342.0, 344.0, 346.0, 348.0, 350.0, 352.0, 354.0, 356.0, 358.0]}}, {"type": "Feature", "geometry": {"type": "Point", "coordinates": [12.518471945193928, 48.245138777777775]}, "properties": {"rank": 22, "elevation_m": 413.0, "combined_score": 0.6674, "terrain_score": 0.6674, "mean_visible_km": 6.78, "max_visible_km": 15.0, "coverage_fraction": 0.611, "horizon_km": [0.1, 0.1, 0.1, 0.1, 0.1, 0.1, 8.3, 6.2, 6.2, 5.0, 5.9, 11.6, 11.6, 9.3, 8.9, 8.6, 11.8, 7.8, 6.0, 6.2, 6.7, 6.4, 7.1, 6.7, 6.7, 6.8, 6.9, 12.9, 10.1, 12.8, 14.8, 10.4, 12.7, 12.2, 9.1, 11.7, 12.2, 11.9, 12.6, 11.8, 12.8, 4.9, 3.4, 3.3, 3.2, 3.8, 11.2, 14.8, 15.0, 15.0, 14.5, 15.0, 14.7, 14.4, 14.9, 11.6, 10.3, 9.4, 9.6, 8.6, 9.6, 8.7, 7.9, 8.5, 6.5, 6.6, 6.9, 6.3, 5.9, 5.3, 5.4, 5.4, 4.6, 4.6, 4.9, 5.0, 4.6, 15.0, 5.1, 7.1, 14.9, 4.4, 4.3, 4.2, 4.7, 4.3, 4.7, 4.5, 4.7, 5.0, 5.0, 5.0, 4.8, 9.7, 5.9, 5.2, 5.7, 6.2, 5.7, 9.1, 8.8, 10.5, 6.8, 6.4, 13.9, 13.9, 15.0, 14.6, 13.6, 14.1, 13.0, 13.6, 12.7, 12.9, 14.3, 4.3, 5.6, 5.8, 4.3, 4.5, 4.6, 5.1, 15.0, 14.7, 4.4, 13.7, 14.1, 14.7, 12.7, 11.9, 12.1, 0.2, 0.2, 0.2, 4.9, 4.3, 5.1, 4.6, 3.7, 4.6, 11.1, 12.0, 13.8, 13.9, 9.2, 9.8, 0.3, 0.3, 0.3, 0.3, 0.3, 0.3, 0.3, 7.1, 0.1, 0.1, 0.1, 0.1, 0.1, 0.1, 0.1, 0.1, 0.1, 0.1, 0.1, 0.1, 0.1, 0.1, 0.1, 0.1, 0.1, 0.1, 0.1, 0.1, 0.1, 0.1, 0.1, 0.1, 0.1, 0.1], "azimuths_deg": [0.0, 2.0, 4.0, 6.0, 8.0, 10.0, 12.0, 14.0, 16.0, 18.0, 20.0, 22.0, 24.0, 26.0, 28.0, 30.0, 32.0, 34.0, 36.0, 38.0, 40.0, 42.0, 44.0, 46.0, 48.0, 50.0, 52.0, 54.0, 56.0, 58.0, 60.0, 62.0, 64.0, 66.0, 68.0, 70.0, 72.0, 74.0, 76.0, 78.0, 80.0, 82.0, 84.0, 86.0, 88.0, 90.0, 92.0, 94.0, 96.0, 98.0, 100.0, 102.0, 104.0, 106.0, 108.0, 110.0, 112.0, 114.0, 116.0, 118.0, 120.0, 122.0, 124.0, 126.0, 128.0, 130.0, 132.0, 134.0, 136.0, 138.0, 140.0, 142.0, 144.0, 146.0, 148.0, 150.0, 152.0, 154.0, 156.0, 158.0, 160.0, 162.0, 164.0, 166.0, 168.0, 170.0, 172.0, 174.0, 176.0, 178.0, 180.0, 182.0, 184.0, 186.0, 188.0, 190.0, 192.0, 194.0, 196.0, 198.0, 200.0, 202.0, 204.0, 206.0, 208.0, 210.0, 212.0, 214.0, 216.0, 218.0, 220.0, 222.0, 224.0, 226.0, 228.0, 230.0, 232.0, 234.0, 236.0, 238.0, 240.0, 242.0, 244.0, 246.0, 248.0, 250.0, 252.0, 254.0, 256.0, 258.0, 260.0, 262.0, 264.0, 266.0, 268.0, 270.0, 272.0, 274.0, 276.0, 278.0, 280.0, 282.0, 284.0, 286.0, 288.0, 290.0, 292.0, 294.0, 296.0, 298.0, 300.0, 302.0, 304.0, 306.0, 308.0, 310.0, 312.0, 314.0, 316.0, 318.0, 320.0, 322.0, 324.0, 326.0, 328.0, 330.0, 332.0, 334.0, 336.0, 338.0, 340.0, 342.0, 344.0, 346.0, 348.0, 350.0, 352.0, 354.0, 356.0, 358.0]}}, {"type": "Feature", "geometry": {"type": "Point", "coordinates": [12.524027499999999, 48.252083222222225]}, "properties": {"rank": 23, "elevation_m": 410.0, "combined_score": 0.6639, "terrain_score": 0.6639, "mean_visible_km": 4.09, "max_visible_km": 15.0, "coverage_fraction": 0.411, "horizon_km": [5.6, 4.1, 4.1, 5.5, 5.5, 7.5, 5.4, 5.4, 4.2, 5.1, 4.3, 10.7, 10.8, 8.4, 8.0, 0.1, 0.1, 0.1, 0.1, 0.1, 0.1, 0.1, 0.1, 0.1, 0.1, 0.1, 0.1, 0.1, 0.1, 0.1, 0.1, 0.1, 0.1, 0.1, 0.1, 0.1, 0.1, 0.1, 0.1, 0.1, 0.1, 0.1, 0.1, 0.1, 0.1, 2.8, 2.8, 13.1, 10.8, 14.6, 14.9, 2.9, 15.0, 14.9, 14.6, 14.9, 14.8, 14.9, 10.6, 10.3, 9.3, 10.2, 8.6, 8.1, 8.8, 8.0, 14.3, 14.0, 6.7, 6.4, 6.5, 6.0, 6.2, 5.7, 5.7, 5.8, 7.3, 5.1, 5.4, 5.5, 6.1, 5.0, 5.7, 6.8, 5.0, 5.0, 5.0, 4.9, 5.0, 5.2, 4.9, 0.1, 0.1, 0.1, 0.1, 0.1, 0.1, 0.1, 0.1, 0.1, 0.1, 0.1, 0.1, 0.1, 0.1, 0.1, 0.1, 0.1, 0.1, 0.1, 0.1, 0.1, 0.1, 0.1, 0.1, 0.1, 0.1, 0.1, 0.1, 0.2, 5.0, 5.1, 5.9, 5.4, 14.4, 14.8, 13.0, 12.3, 12.7, 5.0, 4.8, 4.6, 4.5, 4.7, 4.9, 4.5, 0.8, 0.8, 0.8, 12.2, 13.8, 9.5, 9.7, 9.4, 9.3, 9.4, 13.1, 7.0, 7.3, 7.3, 6.9, 0.1, 0.1, 0.1, 0.1, 0.1, 0.1, 0.1, 0.1, 0.1, 0.1, 0.1, 0.1, 0.1, 0.1, 0.1, 0.1, 0.1, 0.1, 0.1, 0.1, 0.1, 0.1, 0.1, 0.1, 0.1, 0.1, 4.7, 4.8, 0.3], "azimuths_deg": [0.0, 2.0, 4.0, 6.0, 8.0, 10.0, 12.0, 14.0, 16.0, 18.0, 20.0, 22.0, 24.0, 26.0, 28.0, 30.0, 32.0, 34.0, 36.0, 38.0, 40.0, 42.0, 44.0, 46.0, 48.0, 50.0, 52.0, 54.0, 56.0, 58.0, 60.0, 62.0, 64.0, 66.0, 68.0, 70.0, 72.0, 74.0, 76.0, 78.0, 80.0, 82.0, 84.0, 86.0, 88.0, 90.0, 92.0, 94.0, 96.0, 98.0, 100.0, 102.0, 104.0, 106.0, 108.0, 110.0, 112.0, 114.0, 116.0, 118.0, 120.0, 122.0, 124.0, 126.0, 128.0, 130.0, 132.0, 134.0, 136.0, 138.0, 140.0, 142.0, 144.0, 146.0, 148.0, 150.0, 152.0, 154.0, 156.0, 158.0, 160.0, 162.0, 164.0, 166.0, 168.0, 170.0, 172.0, 174.0, 176.0, 178.0, 180.0, 182.0, 184.0, 186.0, 188.0, 190.0, 192.0, 194.0, 196.0, 198.0, 200.0, 202.0, 204.0, 206.0, 208.0, 210.0, 212.0, 214.0, 216.0, 218.0, 220.0, 222.0, 224.0, 226.0, 228.0, 230.0, 232.0, 234.0, 236.0, 238.0, 240.0, 242.0, 244.0, 246.0, 248.0, 250.0, 252.0, 254.0, 256.0, 258.0, 260.0, 262.0, 264.0, 266.0, 268.0, 270.0, 272.0, 274.0, 276.0, 278.0, 280.0, 282.0, 284.0, 286.0, 288.0, 290.0, 292.0, 294.0, 296.0, 298.0, 300.0, 302.0, 304.0, 306.0, 308.0, 310.0, 312.0, 314.0, 316.0, 318.0, 320.0, 322.0, 324.0, 326.0, 328.0, 330.0, 332.0, 334.0, 336.0, 338.0, 340.0, 342.0, 344.0, 346.0, 348.0, 350.0, 352.0, 354.0, 356.0, 358.0]}}, {"type": "Feature", "geometry": {"type": "Point", "coordinates": [12.543471941821247, 48.19652766666667]}, "properties": {"rank": 24, "elevation_m": 451.0, "combined_score": 0.6614, "terrain_score": 0.6614, "mean_visible_km": 7.99, "max_visible_km": 15.0, "coverage_fraction": 0.644, "horizon_km": [13.2, 12.5, 14.7, 15.0, 14.6, 13.4, 10.8, 10.8, 10.6, 10.4, 10.3, 14.8, 14.1, 14.8, 14.7, 15.0, 14.2, 14.1, 12.7, 11.4, 13.4, 14.0, 12.8, 13.3, 2.1, 2.1, 2.0, 2.1, 2.1, 14.6, 2.5, 2.5, 2.4, 2.4, 3.6, 1.9, 1.9, 2.2, 3.4, 2.8, 2.7, 2.8, 2.1, 12.4, 12.5, 2.1, 2.1, 2.5, 2.6, 2.2, 6.6, 2.4, 5.4, 2.1, 2.1, 9.8, 2.0, 2.0, 9.0, 9.0, 2.1, 11.7, 11.3, 11.7, 11.1, 8.1, 2.0, 10.3, 10.1, 10.0, 9.9, 9.6, 1.5, 1.4, 1.4, 9.2, 0.4, 0.4, 0.4, 0.4, 0.5, 0.4, 0.4, 0.4, 0.4, 0.4, 8.8, 10.1, 9.9, 6.2, 12.1, 9.7, 14.8, 0.8, 0.8, 0.8, 5.6, 5.1, 5.4, 5.1, 5.1, 5.4, 5.8, 6.3, 5.3, 6.2, 9.6, 5.1, 5.9, 6.3, 6.6, 13.7, 10.1, 15.0, 14.7, 14.6, 11.3, 10.2, 10.5, 11.7, 11.9, 11.2, 11.4, 11.5, 11.2, 11.3, 11.6, 3.9, 5.2, 7.0, 4.7, 2.8, 4.9, 5.1, 15.0, 3.3, 14.6, 15.0, 15.0, 15.0, 14.4, 13.6, 12.8, 2.2, 14.8, 1.7, 1.7, 1.1, 1.3, 1.3, 1.4, 1.4, 1.6, 1.6, 1.7, 13.6, 13.7, 14.2, 1.2, 1.6, 12.4, 13.6, 14.0, 15.0, 14.9, 14.1, 15.0, 14.7, 14.4, 14.3, 13.8, 14.7, 10.7, 10.6, 14.0, 13.9, 13.6, 12.2, 11.7, 11.5], "azimuths_deg": [0.0, 2.0, 4.0, 6.0, 8.0, 10.0, 12.0, 14.0, 16.0, 18.0, 20.0, 22.0, 24.0, 26.0, 28.0, 30.0, 32.0, 34.0, 36.0, 38.0, 40.0, 42.0, 44.0, 46.0, 48.0, 50.0, 52.0, 54.0, 56.0, 58.0, 60.0, 62.0, 64.0, 66.0, 68.0, 70.0, 72.0, 74.0, 76.0, 78.0, 80.0, 82.0, 84.0, 86.0, 88.0, 90.0, 92.0, 94.0, 96.0, 98.0, 100.0, 102.0, 104.0, 106.0, 108.0, 110.0, 112.0, 114.0, 116.0, 118.0, 120.0, 122.0, 124.0, 126.0, 128.0, 130.0, 132.0, 134.0, 136.0, 138.0, 140.0, 142.0, 144.0, 146.0, 148.0, 150.0, 152.0, 154.0, 156.0, 158.0, 160.0, 162.0, 164.0, 166.0, 168.0, 170.0, 172.0, 174.0, 176.0, 178.0, 180.0, 182.0, 184.0, 186.0, 188.0, 190.0, 192.0, 194.0, 196.0, 198.0, 200.0, 202.0, 204.0, 206.0, 208.0, 210.0, 212.0, 214.0, 216.0, 218.0, 220.0, 222.0, 224.0, 226.0, 228.0, 230.0, 232.0, 234.0, 236.0, 238.0, 240.0, 242.0, 244.0, 246.0, 248.0, 250.0, 252.0, 254.0, 256.0, 258.0, 260.0, 262.0, 264.0, 266.0, 268.0, 270.0, 272.0, 274.0, 276.0, 278.0, 280.0, 282.0, 284.0, 286.0, 288.0, 290.0, 292.0, 294.0, 296.0, 298.0, 300.0, 302.0, 304.0, 306.0, 308.0, 310.0, 312.0, 314.0, 316.0, 318.0, 320.0, 322.0, 324.0, 326.0, 328.0, 330.0, 332.0, 334.0, 336.0, 338.0, 340.0, 342.0, 344.0, 346.0, 348.0, 350.0, 352.0, 354.0, 356.0, 358.0]}}, {"type": "Feature", "geometry": {"type": "Point", "coordinates": [12.515694167790894, 48.17847211111111]}, "properties": {"rank": 25, "elevation_m": 461.5, "combined_score": 0.6555, "terrain_score": 0.6555, "mean_visible_km": 7.19, "max_visible_km": 15.0, "coverage_fraction": 0.556, "horizon_km": [0.1, 0.1, 0.1, 0.1, 0.1, 0.1, 0.1, 0.1, 0.1, 0.1, 0.1, 0.1, 0.1, 0.1, 0.1, 0.1, 0.1, 0.1, 0.1, 14.7, 14.1, 14.5, 14.9, 15.0, 4.9, 5.0, 3.2, 5.3, 5.3, 6.3, 5.4, 5.4, 4.6, 4.6, 4.9, 4.9, 4.1, 3.0, 3.0, 14.9, 2.7, 14.3, 9.4, 2.5, 2.5, 8.4, 7.9, 8.6, 7.1, 5.6, 10.2, 10.3, 14.7, 13.4, 9.4, 12.5, 11.9, 11.8, 3.8, 10.8, 3.4, 10.2, 9.7, 9.7, 9.6, 9.5, 9.0, 9.4, 9.0, 8.6, 8.9, 8.8, 8.4, 11.1, 6.9, 7.3, 7.3, 7.5, 7.3, 8.6, 8.7, 8.2, 3.1, 3.2, 2.9, 2.9, 2.8, 2.8, 2.8, 3.0, 2.9, 3.2, 3.1, 3.3, 2.7, 3.7, 3.2, 4.0, 2.5, 2.4, 2.4, 2.7, 2.8, 2.7, 3.1, 3.1, 3.2, 3.1, 3.6, 3.9, 14.2, 14.7, 14.9, 14.5, 14.7, 14.1, 11.7, 8.4, 8.2, 7.7, 7.6, 8.9, 9.1, 8.5, 8.5, 8.7, 9.2, 3.0, 10.0, 8.8, 8.8, 1.7, 1.7, 2.9, 14.4, 14.3, 14.3, 13.4, 13.3, 15.0, 14.3, 13.0, 14.0, 14.2, 14.0, 12.8, 12.7, 12.1, 3.5, 3.4, 3.0, 3.1, 2.1, 3.2, 1.9, 2.0, 2.0, 1.0, 1.9, 1.9, 13.7, 13.6, 13.8, 14.4, 14.8, 13.3, 14.3, 14.2, 14.8, 13.5, 15.0, 14.1, 14.9, 15.0, 15.0, 14.4, 13.0, 0.1, 0.1, 0.1], "azimuths_deg": [0.0, 2.0, 4.0, 6.0, 8.0, 10.0, 12.0, 14.0, 16.0, 18.0, 20.0, 22.0, 24.0, 26.0, 28.0, 30.0, 32.0, 34.0, 36.0, 38.0, 40.0, 42.0, 44.0, 46.0, 48.0, 50.0, 52.0, 54.0, 56.0, 58.0, 60.0, 62.0, 64.0, 66.0, 68.0, 70.0, 72.0, 74.0, 76.0, 78.0, 80.0, 82.0, 84.0, 86.0, 88.0, 90.0, 92.0, 94.0, 96.0, 98.0, 100.0, 102.0, 104.0, 106.0, 108.0, 110.0, 112.0, 114.0, 116.0, 118.0, 120.0, 122.0, 124.0, 126.0, 128.0, 130.0, 132.0, 134.0, 136.0, 138.0, 140.0, 142.0, 144.0, 146.0, 148.0, 150.0, 152.0, 154.0, 156.0, 158.0, 160.0, 162.0, 164.0, 166.0, 168.0, 170.0, 172.0, 174.0, 176.0, 178.0, 180.0, 182.0, 184.0, 186.0, 188.0, 190.0, 192.0, 194.0, 196.0, 198.0, 200.0, 202.0, 204.0, 206.0, 208.0, 210.0, 212.0, 214.0, 216.0, 218.0, 220.0, 222.0, 224.0, 226.0, 228.0, 230.0, 232.0, 234.0, 236.0, 238.0, 240.0, 242.0, 244.0, 246.0, 248.0, 250.0, 252.0, 254.0, 256.0, 258.0, 260.0, 262.0, 264.0, 266.0, 268.0, 270.0, 272.0, 274.0, 276.0, 278.0, 280.0, 282.0, 284.0, 286.0, 288.0, 290.0, 292.0, 294.0, 296.0, 298.0, 300.0, 302.0, 304.0, 306.0, 308.0, 310.0, 312.0, 314.0, 316.0, 318.0, 320.0, 322.0, 324.0, 326.0, 328.0, 330.0, 332.0, 334.0, 336.0, 338.0, 340.0, 342.0, 344.0, 346.0, 348.0, 350.0, 352.0, 354.0, 356.0, 358.0]}}]}